"name","codesystem","code","ontologyTermURI","city","country","latitude","longitude"
"'s Heeren Loo","ROR","05mf3wf75","https://ror.org/05mf3wf75","Amersfoort","Netherlands","52.155","5.3875"
"A Sister's Hope","ROR","03dm55k03","https://ror.org/03dm55k03","Amsterdam","Netherlands","52.35235","4.946705"
"AA Brediusstichting","ROR","01p369f26","https://ror.org/01p369f26","Wijchen","Netherlands","51.834518","5.676269"
"AGE Platform Europe","ROR","05tj22n53","https://ror.org/05tj22n53","Brussels","Belgium","50.840848","4.383011"
"AO Nederland","ROR","0540d1y92","https://ror.org/0540d1y92","Amersfoort","Netherlands","52.176539","5.412059"
"AZ Delta","ROR","04b0her22","https://ror.org/04b0her22","Roeselare","Belgium","50.938138","3.114624"
"AZ Groeninge","ROR","01cz3wf89","https://ror.org/01cz3wf89","Kortrijk","Belgium","50.82803","3.26487"
"AZ Klina","ROR","00h1gfz86","https://ror.org/00h1gfz86","Brasschaat","Belgium","51.297883","4.488611"
"AZ Maria Middelares","ROR","048pv7s22","https://ror.org/048pv7s22","Ghent","Belgium","51.025461","3.7023"
"AZ Sint-Blasius","ROR","0411byy62","https://ror.org/0411byy62","Dendermonde","Belgium","51.027596","4.117315"
"AZ Sint-Jan","ROR","030h1vb90","https://ror.org/030h1vb90","Bruges","Belgium","51.219998","3.193777"
"AZ Sint-Lucas","ROR","01h5ykb44","https://ror.org/01h5ykb44","Bruges","Belgium","51.185125","3.249138"
"Academic Center for Dentistry Amsterdam","ROR","04x5wnb75","https://ror.org/04x5wnb75","Amsterdam","Netherlands","52.336713","4.86113"
"Academic Medical Center","ROR","03t4gr691","https://ror.org/03t4gr691","Amsterdam","Netherlands","52.37403","4.88969"
"Academie Verloskunde Amsterdam Groningen","ROR","02nt7ap43","https://ror.org/02nt7ap43","Amsterdam","Netherlands","52.37403","4.88969"
"Académie Royale des Beaux-Arts","ROR","0200zrw72","https://ror.org/0200zrw72","Brussels","Belgium","50.843781","4.348006"
"Académie Royale des Beaux-Arts de Liège","ROR","01k0y5630","https://ror.org/01k0y5630","Liège","Belgium","50.647095","5.568724"
"Académie des Beaux-Arts de Tournai","ROR","02k7ygp86","https://ror.org/02k7ygp86","Tournai","Belgium","50.607721","3.390032"
"Accare","ROR","02h4pw461","https://ror.org/02h4pw461","Groningen","Netherlands","53.220339","6.577168"
"Access to Medicine Index","ROR","00msak069","https://ror.org/00msak069","Haarlem","Netherlands","52.383515","4.642962"
"Access to Nutrition Foundation","ROR","01mdbny50","https://ror.org/01mdbny50","Utrecht","Netherlands","52.095841","5.1115"
"Access to Seeds Index","ROR","02zpzpz12","https://ror.org/02zpzpz12","Haarlem","Netherlands","52.383515","4.642974"
"Adelante","ROR","04f03nc30","https://ror.org/04f03nc30","Hoensbroek","Netherlands","50.921064","5.910405"
"Admiraal De Ruyter Ziekenhuis","ROR","04r0k8112","https://ror.org/04r0k8112","Flushing","Netherlands","51.4425","3.57361"
"Agence Wallonne du Patrimoine","ROR","058fcc996","https://ror.org/058fcc996","Namur","Belgium","50.46551","4.90799"
"Agence wallonne à l'Exportation et aux Investissements étrangers","ROR","001j5ag10","https://ror.org/001j5ag10","Brussels","Belgium","50.8592646","4.345607"
"Agentschap voor Natuur en Bos","ROR","04wcznf70","https://ror.org/04wcznf70","Brussels","Belgium","50.777543","4.248395"
"Agfa HealthCare","ROR","05raay295","https://ror.org/05raay295","Mortsel","Belgium","51.178117","4.444"
"Aidsfonds","ROR","00j04c011","https://ror.org/00j04c011","Amsterdam","Netherlands","52.369095","4.884015"
"Airports Council International Europe","ROR","040xcjs75","https://ror.org/040xcjs75","Brussels","Belgium","50.84106","4.371676"
"Albert Schweitzer Ziekenhuis","ROR","00e8ykd54","https://ror.org/00e8ykd54","Dordrecht","Netherlands","51.81","4.67361"
"Alexander Monro Ziekenhuis","ROR","014ef6110","https://ror.org/014ef6110","Utrecht","Netherlands","52.156782","5.20615"
"Alfa College","ROR","030ms0k96","https://ror.org/030ms0k96","Groningen","Netherlands","53.213776","6.547468"
"Alpro Foundation","ROR","05fgn4m77","https://ror.org/05fgn4m77","Ghent","Belgium","51.05","3.71667"
"Alrijne Ziekenhuis","ROR","017rd0q69","https://ror.org/017rd0q69","Leiden","Netherlands","52.156779","4.54126"
"Altrecht GGZ","ROR","050jqep38","https://ror.org/050jqep38","Utrecht","Netherlands","52.084967","5.125201"
"Amalia Kinderziekenhuis","ROR","024pk8k39","https://ror.org/024pk8k39","Nijmegen","Netherlands","51.823641","5.859822"
"AmbulanceZorg Rotterdam-Rijnmond","ROR","04c4nbz33","https://ror.org/04c4nbz33","Barendrecht","Netherlands","51.855098","4.513192"
"Amphia Ziekenhuis","ROR","01g21pa45","https://ror.org/01g21pa45","Breda","Netherlands","51.581863","4.7973"
"Amstelland Fysiotherapie","ROR","01zacdj41","https://ror.org/01zacdj41","Amstelveen","Netherlands","52.294907","4.873227"
"Amsterdam Institute for Advanced Metropolitan Solutions","ROR","01g0n8690","https://ror.org/01g0n8690","Amsterdam","Netherlands","52.1699549","4.7882956"
"Amsterdam Museum","ROR","05cj5gd51","https://ror.org/05cj5gd51","Amsterdam","Netherlands","52.370075","4.889963"
"Amsterdam UMC Location VUmc","ROR","00q6h8f30","https://ror.org/00q6h8f30","Amsterdam","Netherlands","52.37403","4.88969"
"Amsterdam University College","ROR","03dpjfc73","https://ror.org/03dpjfc73","Amsterdam","Netherlands","52.354807","4.951823"
"Amsterdam University Medical Centers","ROR","05grdyy37","https://ror.org/05grdyy37","Amsterdam","Netherlands","52.37403","4.88969"
"Amsterdam University of Applied Sciences","ROR","00y2z2s03","https://ror.org/00y2z2s03","Amsterdam","Netherlands","52.345784","4.916179"
"Amsterdam University of the Arts","ROR","04dde1554","https://ror.org/04dde1554","Amsterdam","Netherlands","52.370089","4.90147"
"Amsterdam health & technology institute","ROR","052b8a564","https://ror.org/052b8a564","Amsterdam","Netherlands","52.37403","4.88969"
"Andros Mannenkliniek","ROR","03xhpsm17","https://ror.org/03xhpsm17","Arnhem","Netherlands","51.9535351","5.8733045"
"Antes","ROR","04318hx17","https://ror.org/04318hx17","Rotterdam","Netherlands","51.919488","4.530607"
"Antwerp Management School","ROR","00hm4a331","https://ror.org/00hm4a331","Antwerp","Belgium","51.220639","4.41075"
"Antwerp Maritime Academy","ROR","04ag58v20","https://ror.org/04ag58v20","Antwerp","Belgium","51.240589","4.39816"
"Antwerp University Hospital","ROR","01hwamj44","https://ror.org/01hwamj44","Antwerp","Belgium","51.22047","4.40026"
"Apotheek Haagse Ziekenhuizen","ROR","003n39s44","https://ror.org/003n39s44","The Hague","Netherlands","52.055704","4.262301"
"Arbo Unie","ROR","05fwtr092","https://ror.org/05fwtr092","Utrecht","Netherlands","52.067063","5.108891"
"Archeologisch Diensten Centrum (Netherlands)","ROR","045x7cm28","https://ror.org/045x7cm28","Amersfoort","Netherlands","52.170237","5.353231"
"Arkin","ROR","0491zfs73","https://ror.org/0491zfs73","Amsterdam","Netherlands","52.407267","4.891431"
"Arq Psychotrauma Expert Group","ROR","0081aw162","https://ror.org/0081aw162","Diemen","Netherlands","52.328046","4.964195"
"ArtEZ Institute of the Arts","ROR","05az93f25","https://ror.org/05az93f25","Arnhem","Netherlands","51.98","5.91111"
"Artemis One Health Research Foundation","ROR","00g4f6p58","https://ror.org/00g4f6p58","Delft","Netherlands","52.097156","5.087291"
"Artesis Plantijn Hogeschool Antwerpen","ROR","0075f1c08","https://ror.org/0075f1c08","Antwerp","Belgium","51.22047","4.40026"
"Artevelde University College Ghent","ROR","04ffw0491","https://ror.org/04ffw0491","Ghent","Belgium","51.055547","3.723248"
"Arts²","ROR","00tf9x563","https://ror.org/00tf9x563","Mons","Belgium","50.455277","3.953137"
"Asklepios Foundation","ROR","00740sw32","https://ror.org/00740sw32","Amersfoort","Netherlands","52.158088","5.379194"
"Asser Institute","ROR","04tdptw32","https://ror.org/04tdptw32","The Hague","Netherlands","52.07667","4.29861"
"Association Nationale d’Aide aux personnes Handicapées","ROR","05smc1464","https://ror.org/05smc1464","Brussels","Belgium","50.87479","4.318175"
"Association Pharmaceutique Belge","ROR","037jjwb78","https://ror.org/037jjwb78","Brussels","Belgium","50.843804","4.384783"
"Association of European Science and Technology Transfer Professionals","ROR","04bp6s359","https://ror.org/04bp6s359","Brussels","Belgium","50.786948","4.505774"
"Association of universities in the Netherlands","ROR","05wvdt748","https://ror.org/05wvdt748","The Hague","Netherlands","52.080789","4.315695"
"Atria","ROR","03n243a44","https://ror.org/03n243a44","Amsterdam","Netherlands","52.366122","4.89274"
"Atrium Medisch Centrum Parkstad","ROR","0367sye10","https://ror.org/0367sye10","Heerlen","Netherlands","50.869191","5.976519"
"Avans University of Applied Sciences","ROR","015d5s513","https://ror.org/015d5s513","Breda","Netherlands","51.688892","5.28693"
"Avans+","ROR","003meye08","https://ror.org/003meye08","Breda","Netherlands","51.581591","4.807605"
"Aveleijn","ROR","03krr1g45","https://ror.org/03krr1g45","Borne","Netherlands","52.302307","6.75091"
"BASilar artery International Cooperation Study","ROR","014dvgf17","https://ror.org/014dvgf17","Nieuwegein","Netherlands","52.024302","5.081144"
"BC Broekhin Roermond","ROR","05rxmpb48","https://ror.org/05rxmpb48","Roermond","Netherlands","51.207827","6.011941"
"Babbage Institute for Knowledge and Information Technologies","ROR","05n1gam72","https://ror.org/05n1gam72","Ghent","Belgium","51.054599","3.715635"
"Basko Healthcare","ROR","032dyj305","https://ror.org/032dyj305","Zaandam","Netherlands","52.427839","4.839611"
"Bavo Stichting Heemstede","ROR","00zbyrh97","https://ror.org/00zbyrh97","Haarlem","Netherlands","52.362536","4.623669"
"Beatrix Kinderziekenhuis","ROR","02zyr1680","https://ror.org/02zyr1680","Groningen","Netherlands","53.223336","6.576273"
"Belastingdienst","ROR","01qh5w602","https://ror.org/01qh5w602","The Hague","Netherlands","50.893336586","5.9726648397"
"Belgian American Educational Foundation","ROR","014rsed66","https://ror.org/014rsed66","Brussels","Belgium","50.839339","4.365363"
"Belgian Development Agency","ROR","0211vdk93","https://ror.org/0211vdk93","Brussels","Belgium","50.838498","4.350319"
"Belgian Federal Science Policy Office","ROR","01fapfv42","https://ror.org/01fapfv42","Brussels","Belgium","50.82542","4.365477"
"Belgian Health Care Knowledge Centre","ROR","02depad46","https://ror.org/02depad46","Brussels","Belgium","50.85045","4.34878"
"Belgian Road Research Centre","ROR","0289e7d92","https://ror.org/0289e7d92","Brussels","Belgium","50.850836","4.351699"
"Belgian Society for Pneumology","ROR","02ceryg42","https://ror.org/02ceryg42","Brussels","Belgium","50.850836","4.352728"
"Belgian Welding Institute","ROR","00gxft621","https://ror.org/00gxft621","Ghent","Belgium","51.018194","3.702754"
"Bergman Clinics","ROR","00z1c3x88","https://ror.org/00z1c3x88","The Hague","Netherlands","52.29515","5.159464"
"Bertrand Russell College","ROR","002g6sj22","https://ror.org/002g6sj22","Zaanstad","Netherlands","52.44459","4.816785"
"Bibliothèque Royale de Belgique","ROR","0105w2p42","https://ror.org/0105w2p42","Brussels","Belgium","50.844444","4.356389"
"Binche Musée International du Carnaval et du Masque","ROR","025apse83","https://ror.org/025apse83","Binche","Belgium","50.409513","4.165996"
"Biodiversity Information Standards","ROR","03k171441","https://ror.org/03k171441","Brussels","Belgium","50.850322","4.353097"
"Biomedical Primate Research Centre","ROR","02ahxbh87","https://ror.org/02ahxbh87","Rijswijk","Netherlands","52.029347","4.341928"
"Bonaventuracollege","ROR","03nk3sc73","https://ror.org/03nk3sc73","Leiden","Netherlands","52.172948","4.482645"
"Boston University Brussels","ROR","02vpfbn76","https://ror.org/02vpfbn76","Brussels","Belgium","50.818316","4.402494"
"Bouman GGZ","ROR","018hhzz02","https://ror.org/018hhzz02","Rotterdam","Netherlands","51.9186405","4.530693"
"Bravis Ziekenhuis","ROR","05564wx43","https://ror.org/05564wx43","Roosendaal","Netherlands","51.53083","4.46528"
"Breast International Group","ROR","0092p0v85","https://ror.org/0092p0v85","Brussels","Belgium","50.833982","4.347109"
"Brijder","ROR","04whgpk43","https://ror.org/04whgpk43","Haarlem","Netherlands","52.3837918","4.6428787"
"Bronovo Hospital","ROR","03r781319","https://ror.org/03r781319","The Hague","Netherlands","52.10136","4.317775"
"Bruegel","ROR","03e6bna46","https://ror.org/03e6bna46","Brussels","Belgium","50.85045","4.34878"
"Brussels Management School","ROR","01kdhhd16","https://ror.org/01kdhhd16","Brussels","Belgium","50.828006","4.45553"
"Brussels Office of Helmholtz Association","ROR","05sgy1v64","https://ror.org/05sgy1v64","Brussels","Belgium","50.837","4.370363"
"Brussels School of International Studies","ROR","002kn6n54","https://ror.org/002kn6n54","Brussels","Belgium","50.85045","4.34878"
"Buildings Performance Institute Europe","ROR","02xffg312","https://ror.org/02xffg312","Brussels","Belgium","50.8426354","4.3717736"
"C Care Orthopedics","ROR","05vgtss27","https://ror.org/05vgtss27","Rotterdam","Netherlands","51.924031","4.492448"
"C.T. de Wit Graduate School for Production Ecology and Resource Conservation","ROR","020dp5a36","https://ror.org/020dp5a36","Wageningen","Netherlands","51.987657","5.667721"
"CHR Verviers","ROR","02q6q3y87","https://ror.org/02q6q3y87","Verviers","Belgium","50.583255","5.859859"
"CHU Ambroise Paré","ROR","02d9v9944","https://ror.org/02d9v9944","Mons","Belgium","50.45413","3.95229"
"CHU Dinant Godinne UCL Namur","ROR","00ntbvq76","https://ror.org/00ntbvq76","Namur","Belgium","50.35835","4.88118"
"CINOP","ROR","035jt5x02","https://ror.org/035jt5x02","'s-Hertogenbosch","Netherlands","51.690682","5.294642"
"CPB Netherlands Bureau for Economic Policy Analysis","ROR","04rjxzd30","https://ror.org/04rjxzd30","The Hague","Netherlands","52.100948","4.28453"
"Cancer Genomics Centre","ROR","02y9qjz38","https://ror.org/02y9qjz38","Utrecht","Netherlands","52.09083","5.12222"
"Canisius-Wilhelmina Ziekenhuis","ROR","027vts844","https://ror.org/027vts844","Nijmegen","Netherlands","51.8425","5.85278"
"Canon Foundation in Europe","ROR","03sjs8573","https://ror.org/03sjs8573","Amstelveen","Netherlands","52.285805","4.841094"
"Capri Hartrevalidatie","ROR","052bwcm79","https://ror.org/052bwcm79","Rotterdam","Netherlands","51.916948","4.529726"
"Carolus Magnus University","ROR","02d2pe314","https://ror.org/02d2pe314","Brussels","Belgium","50.833044","4.357608"
"Catharina Ziekenhuis","ROR","01qavk531","https://ror.org/01qavk531","Eindhoven","Netherlands","51.44083","5.47778"
"Catholic University College of Bruges–Ostend","ROR","0113zvv22","https://ror.org/0113zvv22","Bruges","Belgium","51.1864","3.206202"
"Center for Personalized Cancer Treatment","ROR","00xjcve44","https://ror.org/00xjcve44","Rotterdam","Netherlands","51.943144","4.429708"
"Center for Technology & Innovation Management","ROR","041deym60","https://ror.org/041deym60","Leiden","Netherlands","52.153916","4.496504"
"Center for Translational Molecular Medicine","ROR","047wvvg23","https://ror.org/047wvvg23","Eindhoven","Netherlands","51.408656","5.454327"
"Centexbel","ROR","00tjjak64","https://ror.org/00tjjak64","Brussels","Belgium","50.841432","4.37012"
"Central Military Hospital","ROR","01d3gh658","https://ror.org/01d3gh658","Utrecht","Netherlands","52.0883","5.178739"
"Centre Hospitalier Chrétien","ROR","002atrf55","https://ror.org/002atrf55","Liège","Belgium","50.648375","5.555951"
"Centre Hospitalier Interrégional Edith Cavell","ROR","03003by36","https://ror.org/03003by36","Brussels","Belgium","50.81361","4.356897"
"Centre Hospitalier Régional de Huy","ROR","05jccej20","https://ror.org/05jccej20","Huy","Belgium","50.514142","5.239902"
"Centre Hospitalier Régional de Namur","ROR","00kc2sb72","https://ror.org/00kc2sb72","Namur","Belgium","50.467777","4.887447"
"Centre Hospitalier Universitaire Brugmann","ROR","011apjk30","https://ror.org/011apjk30","Brussels","Belgium","50.887172","4.331029"
"Centre Hospitalier Universitaire de Liège","ROR","044s61914","https://ror.org/044s61914","Liège","Belgium","50.572386","5.56717"
"Centre Hospitalier Universitaire de Saint-Pierre","ROR","05cmp5q80","https://ror.org/05cmp5q80","Brussels","Belgium","50.85045","4.34878"
"Centre Hospitalier Universitaire de Tivoli","ROR","02zekek97","https://ror.org/02zekek97","La Louvière","Belgium","50.48657","4.18785"
"Centre Hospitalier de Mouscron","ROR","01ztenz65","https://ror.org/01ztenz65","Mouscron","Belgium","50.749682","3.220962"
"Centre Hospitalier de Wallonie Picarde","ROR","00bv4hb15","https://ror.org/00bv4hb15","Tournai","Belgium","50.614416","3.386929"
"Centre d'Enseignement et de Recherches des Industries Alimentaires et Chimiques","ROR","048n5xe95","https://ror.org/048n5xe95","Brussels","Belgium","50.815584","4.296311"
"Centre d'Excellence en Technologies de l'Information et de la Communication","ROR","02ma6j015","https://ror.org/02ma6j015","Charleroi","Belgium","50.41136","4.44448"
"Centre d’Economie rurale","ROR","05bh7ff72","https://ror.org/05bh7ff72","Marche-en-Famenne","Belgium","50.199728","5.310399"
"Centre for BioSystems Genomics","ROR","02j7y6936","https://ror.org/02j7y6936","Wageningen","Netherlands","51.986772","5.663337"
"Centre for European Policy Studies","ROR","000a2sx58","https://ror.org/000a2sx58","Brussels","Belgium","50.849903","4.363488"
"Centre for Expertise in the Treatment and Management of Water","ROR","04rt32z32","https://ror.org/04rt32z32","Liège","Belgium","50.585594","5.561893"
"Centre for International Law Research and Policy","ROR","03gmwcy77","https://ror.org/03gmwcy77","Brussels","Belgium","50.817977","4.388359"
"Centre hospitalier Etterbeek-Ixelles","ROR","02v4ner66","https://ror.org/02v4ner66","Brussels","Belgium","50.82566","4.379285"
"Centre hospitalier régional de la Citadelle","ROR","059kfmf89","https://ror.org/059kfmf89","Liège","Belgium","50.65213","5.574971"
"Centre of Technological Resources in Chemistry","ROR","00bpwc735","https://ror.org/00bpwc735","Seneffe","Belgium","50.508445","4.263331"
"Centrum Aquamarijn","ROR","04byjbp28","https://ror.org/04byjbp28","Eindhoven","Netherlands","51.431423","5.485751"
"Centrum Oosterwal","ROR","058x0nn53","https://ror.org/058x0nn53","Alkmaar","Netherlands","52.64462","4.726668"
"Centrum Verslavings Onderzoek","ROR","041a6v281","https://ror.org/041a6v281","Utrecht","Netherlands","52.111174","5.111363"
"Centrum voor Gynaecologische Oncologie Amsterdam","ROR","03sxzz606","https://ror.org/03sxzz606","Amsterdam","Netherlands","52.3494626","4.8236381"
"Christelijk Gymnasium Utrecht","ROR","02gd5t807","https://ror.org/02gd5t807","Utrecht","Netherlands","52.088387","5.099544"
"Christelijke Scholengemeenschap Walcheren","ROR","02rdwwh89","https://ror.org/02rdwwh89","Middelburg","Netherlands","51.507716","3.614372"
"Christian University of Applied Sciences","ROR","04tj5wz42","https://ror.org/04tj5wz42","Ede","Netherlands","52.0194","5.663961"
"Churches’ Commission for Migrants in Europe","ROR","01cdkgk90","https://ror.org/01cdkgk90","Brussels","Belgium","50.8440689","4.3811002"
"Cicero Zorggroep","ROR","048rt2d32","https://ror.org/048rt2d32","Brunssum","Netherlands","50.952844","5.980059"
"Ciro","ROR","03b8ydc26","https://ror.org/03b8ydc26","Hoorn","Netherlands","52.6425","5.05972"
"City of Antwerp","ROR","043570368","https://ror.org/043570368","Antwerp","Belgium","51.216667","4.416667"
"Clinic of Hope","ROR","03z222993","https://ror.org/03z222993","Montegnée","Belgium","50.645401","5.514129"
"Clinical Trial Center Maastricht","ROR","03gsbap19","https://ror.org/03gsbap19","Maastricht","Netherlands","50.832969","5.715903"
"Clinique Saint Jean","ROR","01dd1x730","https://ror.org/01dd1x730","Brussels","Belgium","50.855229","4.360402"
"Clinique Saint Pierre","ROR","009w8mm15","https://ror.org/009w8mm15","Ottignies","Belgium","50.667033","4.561909"
"Clinique Saint-Joseph","ROR","027sxqf09","https://ror.org/027sxqf09","Liège","Belgium","50.63921","5.568189"
"Cliniques Universitaires Saint-Luc","ROR","03s4khd80","https://ror.org/03s4khd80","Brussels","Belgium","50.852056","4.452361"
"Cliniques du Sud Luxembourg","ROR","05egn8t81","https://ror.org/05egn8t81","Arlon","Belgium","49.678004","5.820431"
"Coatings Research Institute","ROR","03m4peq39","https://ror.org/03m4peq39","Louvain-la-Neuve","Belgium","50.689911","4.525593"
"Codarts Rotterdam","ROR","04vtvrr13","https://ror.org/04vtvrr13","Rotterdam","Netherlands","51.922002","4.471687"
"College of Europe","ROR","0079jgp14","https://ror.org/0079jgp14","Bruges","Belgium","51.206173","3.226099"
"College voor de Rechten van de Mens","ROR","03kfjwh70","https://ror.org/03kfjwh70","Utrecht","Netherlands","52.098777","5.127449"
"Combined Ophthalmic Research Rotterdam","ROR","03cfd9m08","https://ror.org/03cfd9m08","Rotterdam","Netherlands","51.915791","4.4802"
"Common Community Commission","ROR","057pame33","https://ror.org/057pame33","Brussels","Belgium","50.841325","4.374014"
"Common Fund for Commodities","ROR","03xnf5k89","https://ror.org/03xnf5k89","Amsterdam","Netherlands","52.358678","4.888269"
"Community Research and Development Information Service","ROR","02nc61e46","https://ror.org/02nc61e46","Brussels","Belgium","50.851703","4.348609"
"Confederation of European Forest Owners","ROR","02qwdzc67","https://ror.org/02qwdzc67","Brussels","Belgium","50.850186","4.350325"
"Confederation of National Associations of Tanners and Dressers of the European Community","ROR","00918g650","https://ror.org/00918g650","Brussels","Belgium","50.842476","4.368541"
"Confederation of Organisations in Road Transport Enforcement","ROR","050rqx152","https://ror.org/050rqx152","Brussels","Belgium","50.850186","4.349295"
"Conference Board","ROR","02fnwm920","https://ror.org/02fnwm920","Brussels","Belgium","50.795949","4.407579"
"Conseil Européen de l'Industrie des Peintures des Encres d'Imprimerie et des Couleurs d'Art","ROR","02edkny32","https://ror.org/02edkny32","Brussels","Belgium","50.813322","4.419663"
"Consortium of European Taxonomic Facilities","ROR","0058ctf29","https://ror.org/0058ctf29","Brussels","Belgium","50.837268","4.376321"
"Continua Health Alliance","ROR","03y17pk13","https://ror.org/03y17pk13","Brussels","Belgium","50.850539","4.348979"
"Council of European Aerospace Societies","ROR","02gg0at36","https://ror.org/02gg0at36","Brussels","Belgium","50.8387","4.363405"
"Cultural Heritage Agency of Netherlands","ROR","01rxwr703","https://ror.org/01rxwr703","Amersfoort","Netherlands","52.358687","4.885499"
"Curio","ROR","00e39jm60","https://ror.org/00e39jm60","Etten","Netherlands","51.569974","4.661592"
"DCMR Milieudienst Rijnmond","ROR","024nbjg39","https://ror.org/024nbjg39","Schiedam","Netherlands","51.923659","4.408592"
"DOEN Foundation","ROR","03752z258","https://ror.org/03752z258","Amsterdam","Netherlands","52.37403","4.88969"
"Damiaan Dicht bij het leven","ROR","03w1sg385","https://ror.org/03w1sg385","Ostend","Belgium","51.218756","2.93337"
"De Bastei","ROR","04y2aw426","https://ror.org/04y2aw426","Nijmegen","Netherlands","51.8425","5.85278"
"De Forensische Zorgspecialisten","ROR","03tx1jp34","https://ror.org/03tx1jp34","Utrecht","Netherlands","52.104312","5.111358"
"De Hoogstraat Revalidatie","ROR","04d59va55","https://ror.org/04d59va55","Utrecht","Netherlands","52.087282","5.145837"
"De Kinderkliniek","ROR","03j5g5d55","https://ror.org/03j5g5d55","Almere Stad","Netherlands","52.371302","5.223447"
"De Viersprong","ROR","048jnwk41","https://ror.org/048jnwk41","Halsteren","Netherlands","51.5303391","4.2688703"
"De Wever-Ziekenhuis","ROR","0285m5c69","https://ror.org/0285m5c69","Heerlen","Netherlands","50.887864","5.978136"
"Dedicon","ROR","044jjd544","https://ror.org/044jjd544","Grave","Netherlands","51.754884","5.732998"
"Defence Against Cancer Foundation","ROR","03deszr39","https://ror.org/03deszr39","Nijmegen","Netherlands","51.844538","5.851351"
"Delft University of Technology","ROR","02e2c7k09","https://ror.org/02e2c7k09","Delft","Netherlands","52.002794","4.370898"
"Departement Cultuur, Jeugd en Media","ROR","044g5sj75","https://ror.org/044g5sj75","Brussels","Belgium","50.848092","4.356706"
"Design Academy Eindhoven","ROR","039vq9023","https://ror.org/039vq9023","Eindhoven","Netherlands","51.439778","5.474834"
"Deventer Ziekenhuis","ROR","05w8df681","https://ror.org/05w8df681","Deventer","Netherlands","52.255","6.16389"
"Diakonessenhuis hospital","ROR","01nrpzj54","https://ror.org/01nrpzj54","Utrecht","Netherlands","52.09083","5.12222"
"Dienst Gezondheid & Jeugd","ROR","04ms2sw50","https://ror.org/04ms2sw50","Dordrecht","Netherlands","51.791539","4.68022"
"Digital Europe","ROR","022z2ef35","https://ror.org/022z2ef35","Brussels","Belgium","50.84216","4.371591"
"Dimence","ROR","010jxjq13","https://ror.org/010jxjq13","Deventer","Netherlands","52.261389","6.180722"
"Dioraphte Foundation","ROR","036f91331","https://ror.org/036f91331","Dordrecht","Netherlands","51.81","4.67361"
"Directorate General for Communications Networks, Content and Technology","ROR","00w9hey63","https://ror.org/00w9hey63","Brussels","Belgium","50.85045","4.34878"
"Directorate-General Joint Research Centre","ROR","04j5wtv36","https://ror.org/04j5wtv36","Brussels","Belgium","50.850402","4.347922"
"Directorate-General for Economic and Financial Affairs","ROR","020v07z27","https://ror.org/020v07z27","Brussels","Belgium","50.849824","4.368353"
"Directorate-General for Education, Youth, Sport and Culture","ROR","0481qb682","https://ror.org/0481qb682","Brussels","Belgium","50.850402","4.348952"
"Directorate-General for Energy","ROR","04gkw9q47","https://ror.org/04gkw9q47","Brussels","Belgium","50.843763","4.382376"
"Directorate-General for Health and Food Safety","ROR","0399w1j22","https://ror.org/0399w1j22","Brussels","Belgium","50.834093","4.391592"
"Directorate-General for International Cooperation and Development","ROR","050zqsm78","https://ror.org/050zqsm78","Brussels","Belgium","50.843596","4.382393"
"Directorate-General for Interpretation","ROR","03728bb41","https://ror.org/03728bb41","Brussels","Belgium","50.841098","4.376141"
"Directorate-General for Justice and Consumers","ROR","046epvs68","https://ror.org/046epvs68","Brussels","Belgium","50.843612","4.382417"
"Directorate-General for Maritime Affairs and Fisheries","ROR","04m4a9x26","https://ror.org/04m4a9x26","Brussels","Belgium","50.844845","4.375912"
"Directorate-General for Migration and Home Affairs","ROR","02qc43v06","https://ror.org/02qc43v06","Brussels","Belgium","50.85045","4.34878"
"Directorate-General for Neighbourhood and Enlargement Negotiations","ROR","00941sb79","https://ror.org/00941sb79","Brussels","Belgium","50.844645","4.372045"
"Directorate-General for Research and Innovation","ROR","01ef4as46","https://ror.org/01ef4as46","Brussels","Belgium","50.850186","4.344832"
"Directorate-General for Taxation and Customs Union","ROR","026rh8977","https://ror.org/026rh8977","Brussels","Belgium","50.844999","4.375313"
"Directorate-General for Trade","ROR","04h8m0888","https://ror.org/04h8m0888","Brussels","Belgium","50.843611","4.382416"
"Directory of Open Access Books","ROR","01q0bmy69","https://ror.org/01q0bmy69","The Hague","Netherlands","52.07667","4.29861"
"Dokter Bosman","ROR","04swy5694","https://ror.org/04swy5694","Amersfoort","Netherlands","52.144858","5.352826"
"Domus Medica","ROR","059tf1p39","https://ror.org/059tf1p39","Antwerp","Belgium","51.206538","4.416386"
"Dr Kolbach Kliniek","ROR","01ypfvm35","https://ror.org/01ypfvm35","Maastricht","Netherlands","50.861411","5.661218"
"Driestar Christian University","ROR","05jext738","https://ror.org/05jext738","Gouda","Netherlands","52.018913","4.699316"
"Duchenne Parent Project","ROR","01rvxw146","https://ror.org/01rvxw146","Amsterdam","Netherlands","52.37403","4.88969"
"Dunea","ROR","00ts92g58","https://ror.org/00ts92g58","Zoetermeer","Netherlands","52.052784","4.476279"
"Dutch Art Institute","ROR","023p2b446","https://ror.org/023p2b446","Arnhem","Netherlands","51.981313","5.904846"
"Dutch Butterfly Conservation","ROR","01yt2j759","https://ror.org/01yt2j759","Wageningen","Netherlands","51.9664097","5.6533328"
"Dutch Centre for Field Ornithology","ROR","026x8jh45","https://ror.org/026x8jh45","Nijmegen","Netherlands","51.822228","5.869113"
"Dutch Dairy Association","ROR","01n54ck79","https://ror.org/01n54ck79","The Hague","Netherlands","52.090227","4.32456"
"Dutch Diabetes Research Foundation","ROR","04ch2g225","https://ror.org/04ch2g225","Amersfoort","Netherlands","52.155","5.3875"
"Dutch Fish Marketing Board","ROR","018y30a94","https://ror.org/018y30a94","The Hague","Netherlands","52.099545","4.263329"
"Dutch Foundation for Literature","ROR","01xzsbn64","https://ror.org/01xzsbn64","Amsterdam","Netherlands","52.364177","4.908183"
"Dutch Health Care Inspectorate","ROR","03qdk1w56","https://ror.org/03qdk1w56","Utrecht","Netherlands","52.089632","5.1080524"
"Dutch Heart Registry","ROR","01eh42f79","https://ror.org/01eh42f79","Utrecht","Netherlands","52.0886026","5.1137365"
"Dutch Inspectorate of Education","ROR","05x74wc07","https://ror.org/05x74wc07","Utrecht","Netherlands","52.082804","5.068158"
"Dutch Institute for Advanced Logistics","ROR","00522p687","https://ror.org/00522p687","Breda","Netherlands","51.58656","4.77596"
"Dutch Institute for Clinical Auditing","ROR","014stvx20","https://ror.org/014stvx20","Leiden","Netherlands","52.16781","4.48006"
"Dutch Institute for Healthcare Improvement","ROR","05se6w266","https://ror.org/05se6w266","Utrecht","Netherlands","52.074214","5.095897"
"Dutch Network of Systems and Control","ROR","04jrdcy74","https://ror.org/04jrdcy74","Delft","Netherlands","51.998493","4.376469"
"Dutch Research Council","ROR","04jsz6e67","https://ror.org/04jsz6e67","The Hague","Netherlands","52.080477","4.344407"
"Dutch Techcentre for Life Sciences","ROR","055d8gs64","https://ror.org/055d8gs64","Utrecht","Netherlands","52.089736","5.114174"
"Dutch postgraduate School for Art History","ROR","0265xav62","https://ror.org/0265xav62","Utrecht","Netherlands","52.09083","5.12222"
"ECAM Institut Supérieur Industriel","ROR","019axjh19","https://ror.org/019axjh19","Brussels","Belgium","50.850569","4.454114"
"EGI Foundation","ROR","052jj4m32","https://ror.org/052jj4m32","Amsterdam","Netherlands","52.37403","4.88969"
"EGMONT – The Royal Institute for International Relations","ROR","04y6cx804","https://ror.org/04y6cx804","Brussels","Belgium","50.839824","4.357809"
"ERN Board of Member States","ROR","00r7apq26","https://ror.org/00r7apq26","Brussels","Belgium","50.85045","4.34878"
"ERN CRANIO","ROR","032gggv33","https://ror.org/032gggv33","Rotterdam","Netherlands","51.9225","4.47917"
"ERN GENTURIS","ROR","03pbpa834","https://ror.org/03pbpa834","Nijmegen","Netherlands","51.8425","5.85278"
"ERN GUARD-Heart","ROR","055s7a943","https://ror.org/055s7a943","Amsterdam","Netherlands","52.37403","4.88969"
"ERN RITA","ROR","0208ges23","https://ror.org/0208ges23","Utrecht","Netherlands","52.09083","5.12222"
"ERN eUROGEN","ROR","00y7tet25","https://ror.org/00y7tet25","Nijmegen","Netherlands","51.8425","5.85278"
"ERNICA","ROR","02h9n4675","https://ror.org/02h9n4675","Rotterdam","Netherlands","51.9225","4.47917"
"ETC International","ROR","00d8t8t88","https://ror.org/00d8t8t88","Leusden","Netherlands","52.139277","5.421505"
"EUMETNET","ROR","02jk0wm04","https://ror.org/02jk0wm04","Brussels","Belgium","50.79961","4.35773"
"Eat2Move","ROR","05ea7a262","https://ror.org/05ea7a262","Wageningen","Netherlands","51.968379","5.682617"
"Education Council","ROR","04w3ppj64","https://ror.org/04w3ppj64","The Hague","Netherlands","52.086247","4.30858"
"Eindhoven University of Technology","ROR","02c2kyt77","https://ror.org/02c2kyt77","Eindhoven","Netherlands","51.44861","5.49071"
"Elisabeth-TweeSteden Ziekenhuis","ROR","04gpfvy81","https://ror.org/04gpfvy81","Tilburg","Netherlands","51.539755","5.102812"
"Elkerliek Ziekenhuis","ROR","01q750e89","https://ror.org/01q750e89","Helmond","Netherlands","51.483541","5.641825"
"Emma Kinderziekenhuis","ROR","00bmv4102","https://ror.org/00bmv4102","Amsterdam","Netherlands","52.294652","4.957908"
"Endo-ERN","ROR","05s4nk876","https://ror.org/05s4nk876","Leiden","Netherlands","52.15833","4.49306"
"Endourological Society","ROR","037xna783","https://ror.org/037xna783","Amsterdam","Netherlands","52.37403","4.88969"
"Entrea","ROR","04md5tc32","https://ror.org/04md5tc32","Nijmegen","Netherlands","51.8428621","5.8331567"
"Epicura","ROR","05pvs7q85","https://ror.org/05pvs7q85","Ath","Belgium","50.634831","3.77698"
"Epilepsiefonds","ROR","03ed6ba60","https://ror.org/03ed6ba60","Utrecht","Netherlands","52.0080584","5.1954027"
"Erasmus Hospital","ROR","05j1gs298","https://ror.org/05j1gs298","Brussels","Belgium","50.813611","4.266111"
"Erasmus MC","ROR","018906e22","https://ror.org/018906e22","Rotterdam","Netherlands","51.9225","4.47917"
"Erasmus MC - Sophia Children’s Hospital","ROR","047afsm11","https://ror.org/047afsm11","Rotterdam","Netherlands","51.9225","4.47917"
"Erasmus MC Cancer Institute","ROR","03r4m3349","https://ror.org/03r4m3349","Rotterdam","Netherlands","51.9225","4.47917"
"Erasmus MC Transplant Institute","ROR","0585v6057","https://ror.org/0585v6057","Rotterdam","Netherlands","51.9225","4.47917"
"Erasmus University College Brussels","ROR","01767d733","https://ror.org/01767d733","Brussels","Belgium","50.85045","4.34878"
"Erasmus University Rotterdam","ROR","057w15z03","https://ror.org/057w15z03","Rotterdam","Netherlands","51.9225","4.47917"
"Erfelijke Stofwisselingsziekten Nederland","ROR","05k9gkx37","https://ror.org/05k9gkx37","Utrecht","Netherlands","52.0841868","5.0824915"
"Ergotherapie Nederland","ROR","01aq0vw42","https://ror.org/01aq0vw42","Utrecht","Netherlands","52.070016","5.08083"
"Espérance","ROR","05ns7k858","https://ror.org/05ns7k858","Nijmegen","Netherlands","51.796192","5.808751"
"EuroGeoSurveys","ROR","00e1c8t20","https://ror.org/00e1c8t20","Brussels","Belgium","50.846038","4.372145"
"EuroHealthNet","ROR","0122epm04","https://ror.org/0122epm04","Brussels","Belgium","50.84952","4.363509"
"EuroQol Research Foundation","ROR","01mrvqn21","https://ror.org/01mrvqn21","Rotterdam","Netherlands","51.929583","4.473225"
"Eurogas","ROR","01f8pxc90","https://ror.org/01f8pxc90","Brussels","Belgium","50.8418937","4.3711001"
"Europace","ROR","02np3th21","https://ror.org/02np3th21","Leuven","Belgium","50.862107","4.672675"
"Europdonor Foundation","ROR","00r5t2s16","https://ror.org/00r5t2s16","Leiden","Netherlands","52.164435","4.478023"
"Europe Hospitals","ROR","00w1jf336","https://ror.org/00w1jf336","Brussels","Belgium","50.805187","4.368793"
"European & Developing Countries Clinical Trials Partnership","ROR","031jv9v19","https://ror.org/031jv9v19","The Hague","Netherlands","52.07667","4.29861"
"European Aquaculture Technology and Innovation Platform","ROR","0403wzz51","https://ror.org/0403wzz51","Liège","Belgium","50.623369","5.586298"
"European Association for Biometrics","ROR","03aeskr81","https://ror.org/03aeskr81","Naarden","Netherlands","52.28628","5.157602"
"European Association for Endoscopic Surgery","ROR","015wndh26","https://ror.org/015wndh26","Eindhoven","Netherlands","51.44083","5.47778"
"European Association for Forwarding, Transport, Logistics and Customs Services","ROR","02h8sev96","https://ror.org/02h8sev96","Brussels","Belgium","50.843038","4.369192"
"European Association for Palliative Care","ROR","042jjy888","https://ror.org/042jjy888","Vilvoorde","Belgium","50.92814","4.42938"
"European Association for the Defence of Human Rights","ROR","00p1gt488","https://ror.org/00p1gt488","Brussels","Belgium","50.84222","4.342182"
"European Association for the Promotion of Cogeneration","ROR","04b239q68","https://ror.org/04b239q68","Brussels","Belgium","50.857402","4.431719"
"European Association of Distance Teaching Universities","ROR","053qcv951","https://ror.org/053qcv951","Heerlen","Netherlands","50.878569","5.960519"
"European Association of Research Managers and Administrators","ROR","01t85ct65","https://ror.org/01t85ct65","Brussels","Belgium","50.849969","4.345862"
"European Association of Urology","ROR","00m9mc973","https://ror.org/00m9mc973","Arnhem","Netherlands","51.953552","5.873326"
"European Biodiesel Board","ROR","038ntq021","https://ror.org/038ntq021","Brussels","Belgium","50.833595","4.406142"
"European Biomass Association","ROR","02fq4p941","https://ror.org/02fq4p941","Brussels","Belgium","50.838592","4.363427"
"European Biomass Industry Association","ROR","05mwcb123","https://ror.org/05mwcb123","Brussels","Belgium","50.841899","4.383794"
"European Brain Council","ROR","05jkk6v05","https://ror.org/05jkk6v05","Brussels","Belgium","50.85045","4.34878"
"European Bureau of Library, Information and Documentation Associations","ROR","02qx3jt37","https://ror.org/02qx3jt37","The Hague","Netherlands","",""
"European CanCer Organisation","ROR","024e9aw38","https://ror.org/024e9aw38","Brussels","Belgium","50.850577","4.455973"
"European Cancer Prevention","ROR","02x78ab05","https://ror.org/02x78ab05","Hasselt","Belgium","50.914165","5.316197"
"European Centre for Ecotoxicology and Toxicology of Chemicals","ROR","00v8ry163","https://ror.org/00v8ry163","Brussels","Belgium","50.813226","4.420668"
"European Centre for Knowledge and Technology Transfer","ROR","031x5zp43","https://ror.org/031x5zp43","Brussels","Belgium","50.836696","4.380004"
"European Centre for Nature Conservation","ROR","0315hq159","https://ror.org/0315hq159","Tilburg","Netherlands","51.561775","5.063685"
"European Coil Coating Association","ROR","02m9wbt95","https://ror.org/02m9wbt95","Brussels","Belgium","50.848084","4.353818"
"European College of Neuropsychopharmacology","ROR","05btws897","https://ror.org/05btws897","Utrecht","Netherlands","52.09083","5.12222"
"European Commission","ROR","00k4n6c32","https://ror.org/00k4n6c32","Brussels","Belgium","50.85045","4.34878"
"European Committee for Standardization","ROR","02ejsvn42","https://ror.org/02ejsvn42","Brussels","Belgium","50.839126","4.364257"
"European Committee of Environmental Technology Suppliers Associations","ROR","049s20792","https://ror.org/049s20792","Brussels","Belgium","50.849368","4.402582"
"European Communication Research and Education Association","ROR","0426a7r83","https://ror.org/0426a7r83","Brussels","Belgium","50.798065","4.375213"
"European Community Shipowners' Associations","ROR","032qg9c61","https://ror.org/032qg9c61","Brussels","Belgium","50.847118","4.367489"
"European Conference for AeroSpace Sciences","ROR","04kd9rb82","https://ror.org/04kd9rb82","Halle","Belgium","50.755757","4.386706"
"European Conference of Transport Research Institutes","ROR","00ggq9934","https://ror.org/00ggq9934","Brussels","Belgium","50.837888","4.37032"
"European Coordination Committee of the Radiological, Electromedical and Healthcare IT Industry","ROR","0315a7e71","https://ror.org/0315a7e71","Brussels","Belgium","50.851141","4.401878"
"European Corporate Governance Institute","ROR","04egehb02","https://ror.org/04egehb02","Brussels","Belgium","50.842229","4.36536"
"European Council","ROR","001b17f86","https://ror.org/001b17f86","Brussels","Belgium","50.850619","4.349295"
"European Council on Refugees and Exiles","ROR","02wy0xt13","https://ror.org/02wy0xt13","Brussels","Belgium","50.850619","4.343115"
"European Crowdfunding Network","ROR","01txvbn74","https://ror.org/01txvbn74","Brussels","Belgium","50.840899","4.371239"
"European Defence Agency","ROR","02mkv8r24","https://ror.org/02mkv8r24","Brussels","Belgium","50.85045","4.34878"
"European Disability Forum","ROR","02jfqby89","https://ror.org/02jfqby89","Brussels","Belgium","50.8409","4.369341"
"European Emergency Number Association","ROR","03fdkmv28","https://ror.org/03fdkmv28","Brussels","Belgium","50.8342","4.352138"
"European Energy Research Alliance","ROR","02tszw848","https://ror.org/02tszw848","Brussels","Belgium","50.848525","4.346263"
"European External Action Service","ROR","02t3dz930","https://ror.org/02t3dz930","Brussels","Belgium","50.842565","4.385453"
"European Federation of Agencies and Regions for Energy and Environment","ROR","008s4ef43","https://ror.org/008s4ef43","Brussels","Belgium","50.833811","4.358359"
"European Federation of Allergy and Airways Diseases Patients Associations","ROR","02j9tgd14","https://ror.org/02j9tgd14","Brussels","Belgium","50.843974","4.381381"
"European Federation of Food Science and Technology","ROR","03y0f7839","https://ror.org/03y0f7839","Wageningen","Netherlands","51.984869","5.658315"
"European Food Information Council","ROR","02nsnn902","https://ror.org/02nsnn902","Brussels","Belgium","50.827846","4.361931"
"European Food Information Resource","ROR","00rqqmc76","https://ror.org/00rqqmc76","Brussels","Belgium","50.824812","4.363357"
"European Forum for Good Clinical Practice","ROR","01ygx9r32","https://ror.org/01ygx9r32","Brussels","Belgium","50.849969","4.349295"
"European Foundation for Alcohol Research","ROR","04g6qfd94","https://ror.org/04g6qfd94","Brussels","Belgium","50.848008","4.362608"
"European Genetic Alliances Network","ROR","053g97n06","https://ror.org/053g97n06","Brussels","Belgium","50.823737","4.367218"
"European Geothermal Energy Council","ROR","03bvy3496","https://ror.org/03bvy3496","Brussels","Belgium","50.842516","4.374076"
"European Global Ocean Observing System","ROR","01trb8031","https://ror.org/01trb8031","Brussels","Belgium","50.825284","4.365478"
"European Graduate School of Neuroscience","ROR","00ftg6h50","https://ror.org/00ftg6h50","Maastricht","Netherlands","50.8368276","5.7144819"
"European Health Management Association","ROR","01xny3z34","https://ror.org/01xny3z34","Brussels","Belgium","50.8423","4.369078"
"European Institute of Public Administration","ROR","014tp7304","https://ror.org/014tp7304","Maastricht","Netherlands","50.847448","5.692654"
"European Inter-University Association of Society, Science and Technology","ROR","05nf6pg47","https://ror.org/05nf6pg47","Louvain-la-Neuve","Belgium","50.66846","4.612004"
"European Journalism Centre","ROR","045791j63","https://ror.org/045791j63","Maastricht","Netherlands","50.848166","5.712317"
"European Medicines Agency","ROR","01z0wsw92","https://ror.org/01z0wsw92","Amsterdam","Netherlands","52.37403","4.88969"
"European Membrane House","ROR","052eb7a13","https://ror.org/052eb7a13","Brussels","Belgium","50.848393","4.369616"
"European Mentoring Coaching Council","ROR","02gteh527","https://ror.org/02gteh527","Brussels","Belgium","50.850402","4.347235"
"European Network for Cyber Security","ROR","0584wbt59","https://ror.org/0584wbt59","The Hague","Netherlands","52.069239","4.349306"
"European Network for Smoking and Tobacco Prevention","ROR","01hfc4a93","https://ror.org/01hfc4a93","Brussels","Belgium","50.834034","4.36575"
"European Network of Living Labs","ROR","05vpgt980","https://ror.org/05vpgt980","Brussels","Belgium","50.837288","4.410366"
"European Network of Science Centres and Museums","ROR","05bqk3m74","https://ror.org/05bqk3m74","Brussels","Belgium","50.831617","4.358824"
"European Network on Debt and Development","ROR","04z32jy09","https://ror.org/04z32jy09","Brussels","Belgium","50.837724","4.364226"
"European Observatory on Health Systems and Policies","ROR","0120w5678","https://ror.org/0120w5678","Brussels","Belgium","50.851623","4.351037"
"European Organisation for Research and Treatment of Cancer","ROR","034wxcc35","https://ror.org/034wxcc35","Brussels","Belgium","50.850861","4.456098"
"European Parkinsons Disease Association","ROR","05m0xgf85","https://ror.org/05m0xgf85","Brussels","Belgium","50.85045","4.34878"
"European Parliament","ROR","058fj5k57","https://ror.org/058fj5k57","Brussels","Belgium","50.838925","4.37391"
"European Parliamentary Forum on Population & Development","ROR","03mqek204","https://ror.org/03mqek204","Brussels","Belgium","50.850836","4.344146"
"European Passengers' Federation","ROR","05509w645","https://ror.org/05509w645","Ghent","Belgium","51.03783","3.711413"
"European Pathway Association","ROR","02xq0ba35","https://ror.org/02xq0ba35","Leuven","Belgium","50.879427","4.692502"
"European Photovoltaic Industry Association","ROR","049nq5186","https://ror.org/049nq5186","Brussels","Belgium","50.843019","4.375383"
"European Plasticisers","ROR","04dt6nf05","https://ror.org/04dt6nf05","Brussels","Belgium","50.813363","4.41994"
"European Platform of Women Scientists","ROR","057wy2y58","https://ror.org/057wy2y58","Brussels","Belgium","50.839697","4.372135"
"European Regional and Local Health Authorities","ROR","007022329","https://ror.org/007022329","Brussels","Belgium","50.842788","4.384307"
"European Regions Research and Innovation Network","ROR","02wbb9367","https://ror.org/02wbb9367","Brussels","Belgium","50.846576","4.38165"
"European Research Council","ROR","0472cxd90","https://ror.org/0472cxd90","Brussels","Belgium","50.856165","4.359973"
"European Research Institute of Catalysis","ROR","04skcvp73","https://ror.org/04skcvp73","Brussels","Belgium","50.843195","4.384188"
"European Resuscitation Council","ROR","05s6r7486","https://ror.org/05s6r7486","Niel","Belgium","51.11096","4.33428"
"European Rhinologic Society","ROR","00sbfzz78","https://ror.org/00sbfzz78","Amsterdam-Zuidoost","Netherlands","52.3075","4.97222"
"European Shippers' Council","ROR","01rc3sz57","https://ror.org/01rc3sz57","Brussels","Belgium","50.851053","4.348609"
"European Smart Card Industry Association","ROR","05vzfb740","https://ror.org/05vzfb740","Brussels","Belgium","50.840191","4.367864"
"European Society for Blood and Marrow Transplantation","ROR","014wq8057","https://ror.org/014wq8057","Leiden","Netherlands","52.167748","4.480136"
"European Society for Therapeutic Radiology and Oncology","ROR","02dp3xf77","https://ror.org/02dp3xf77","Brussels","Belgium","50.85058","4.454142"
"European Society of Intensive Care Medicine","ROR","0222qrf24","https://ror.org/0222qrf24","Brussels","Belgium","50.85045","4.34878"
"European Space Research and Technology Centre","ROR","03h3jqn23","https://ror.org/03h3jqn23","Noordwijk-Binnen","Netherlands","52.217222","4.421389"
"European Steel Association","ROR","03s25h048","https://ror.org/03s25h048","Brussels","Belgium","50.845936","4.391429"
"European Trade Union Institute","ROR","00r5yyv69","https://ror.org/00r5yyv69","Brussels","Belgium","50.865092","4.35921"
"European Transport Safety Council","ROR","03b2mxf68","https://ror.org/03b2mxf68","Brussels","Belgium","50.838568","4.398131"
"European Union","ROR","019w4f821","https://ror.org/019w4f821","Brussels","Belgium","50.85045","4.34878"
"European Union Agency for Law Enforcement Cooperation","ROR","05sj3q575","https://ror.org/05sj3q575","The Hague","Netherlands","52.092913","4.281488"
"European Union Road Federation","ROR","02qcxga94","https://ror.org/02qcxga94","Brussels","Belgium","50.821425","4.390567"
"European University Association","ROR","020yfz786","https://ror.org/020yfz786","Brussels","Belgium","50.85045","4.34878"
"European Uro Oncology Group","ROR","04k3tc204","https://ror.org/04k3tc204","Leiden","Netherlands","52.15951","4.499521"
"European Utilities Telecom Council","ROR","04g526d38","https://ror.org/04g526d38","Brussels","Belgium","50.871643","4.416606"
"European Virtual Institute on Knowledge-based Multifunctional Materials","ROR","05xrtfh49","https://ror.org/05xrtfh49","Brussels","Belgium","50.83699","4.370385"
"European Welding Federation","ROR","039z65d40","https://ror.org/039z65d40","Brussels","Belgium","50.851623","4.338676"
"European Writers' Council","ROR","0498wda10","https://ror.org/0498wda10","Brussels","Belgium","50.848155","4.34829"
"Europeana Foundation","ROR","036hkvc70","https://ror.org/036hkvc70","The Hague","Netherlands","52.081389","4.327524"
"Eurotransplant","ROR","00ph3nz62","https://ror.org/00ph3nz62","Leiden","Netherlands","52.164436","4.461088"
"Evangelical Theological Faculty","ROR","053e9nw85","https://ror.org/053e9nw85","Leuven","Belgium","50.868141","4.664266"
"Expertise Center Vocational Education","ROR","05jrbdv26","https://ror.org/05jrbdv26","'s-Hertogenbosch","Netherlands","51.6901976","5.2958866"
"Expertisecentrum Nederlands","ROR","03tqe0950","https://ror.org/03tqe0950","Nijmegen","Netherlands","51.8425","5.85278"
"FPS Foreign Affairs, Foreign Trade and Development Cooperation","ROR","01p777k66","https://ror.org/01p777k66","Brussels","Belgium","50.840583","4.35854"
"Federal Agency for Food Chain Safety","ROR","00sqes684","https://ror.org/00sqes684","Brussels","Belgium","50.852672","4.365154"
"Federal Agency for Nuclear Control","ROR","01jq16575","https://ror.org/01jq16575","Brussels","Belgium","50.844876","4.359314"
"Federal Department of Justice","ROR","04cefae43","https://ror.org/04cefae43","Brussels","Belgium","",""
"Federal Government of Belgium","ROR","00s3jmk58","https://ror.org/00s3jmk58","Brussels","Belgium","50.85045","4.34878"
"Federal Planning Bureau","ROR","01rz4nb07","https://ror.org/01rz4nb07","Brussels","Belgium","50.843272","4.36757"
"Federal Public Service Employment, Labour and Social Dialogue","ROR","01bka6482","https://ror.org/01bka6482","Brussels","Belgium","50.837537","4.334784"
"Federation of European Microbiological Societies","ROR","058hv4b88","https://ror.org/058hv4b88","Delft","Netherlands","52.00667","4.35556"
"Federation of European Publishers","ROR","02x4zab94","https://ror.org/02x4zab94","Brussels","Belgium","50.846164","4.370115"
"Fietsersbond","ROR","05hcyxs26","https://ror.org/05hcyxs26","Utrecht","Netherlands","52.0849834","5.1176495"
"Flanders Environment Agency","ROR","04f41jv37","https://ror.org/04f41jv37","Aalst","Belgium","50.944349","4.044874"
"Flanders Innovation and Entrepreneurship","ROR","032xdry56","https://ror.org/032xdry56","Brussels","Belgium","50.85045","4.34878"
"Flanders Institute for Logistics","ROR","045pdpn43","https://ror.org/045pdpn43","Antwerp","Belgium","51.23254","4.402999"
"Flanders Marine Institute","ROR","0496vr396","https://ror.org/0496vr396","Ostend","Belgium","51.21551","2.927"
"Flemish Advisory Council for Innovation & Enterprise","ROR","01v7g3220","https://ror.org/01v7g3220","Brussels","Belgium","50.85223","4.357662"
"Flemish Community","ROR","00sp8me03","https://ror.org/00sp8me03","Brussels","Belgium","50.8387","4.363405"
"Flemish Government","ROR","04qxsrb28","https://ror.org/04qxsrb28","Brussels","Belgium","50.85045","4.34878"
"Flemish Institute for Archives","ROR","02sdxcs63","https://ror.org/02sdxcs63","Ghent","Belgium","51.058769","3.738972"
"Flemish Parliament","ROR","027przv47","https://ror.org/027przv47","Brussels","Belgium","50.8475","4.3675"
"Flemish Public Employment Service","ROR","018hwj434","https://ror.org/018hwj434","Brussels","Belgium","50.84303","4.35248"
"Flemish Radio and Television Broadcasting Organisation","ROR","048954822","https://ror.org/048954822","Brussels","Belgium","50.852778","4.401667"
"Flevoziekenhuis","ROR","02tqqrq23","https://ror.org/02tqqrq23","Almere Stad","Netherlands","52.37025","5.21413"
"FoAM","ROR","00m5fe987","https://ror.org/00m5fe987","Brussels","Belgium","50.85045","4.34878"
"Fondation Charcot","ROR","04j8wah18","https://ror.org/04j8wah18","Brussels","Belgium","50.876618","4.382092"
"Fondation Marie et Alain Philippson","ROR","00my48t58","https://ror.org/00my48t58","Brussels","Belgium","50.844272","4.370814"
"Fondation Rose et Jean Hoguet","ROR","05q8csa40","https://ror.org/05q8csa40","Brussels","Belgium","50.794774","4.338819"
"Fondation Travail-Université","ROR","03sear378","https://ror.org/03sear378","Brussels","Belgium","50.870182","4.388314"
"Fonds NutsOhra","ROR","04ev7sy32","https://ror.org/04ev7sy32","Amsterdam","Netherlands","52.37403","4.88969"
"Fonds Psychische Gezondheid","ROR","048e31249","https://ror.org/048e31249","Amersfoort","Netherlands","52.155","5.3875"
"Fonds Verstandelijk Gehandicapten","ROR","056v13058","https://ror.org/056v13058","Odijk","Netherlands","52.0465606","5.2204688"
"Fonds de Gavere","ROR","02fyhvd52","https://ror.org/02fyhvd52","Heerenveen","Netherlands","52.9559823","5.9272699"
"Fonds voor het Hart","ROR","00ysd3163","https://ror.org/00ysd3163","The Hague","Netherlands","52.10011","4.27036"
"Fons Vitae Lyceum","ROR","01p232496","https://ror.org/01p232496","Amsterdam","Netherlands","52.351988","4.878536"
"Fontys University of Applied Sciences","ROR","01jwcme05","https://ror.org/01jwcme05","Eindhoven","Netherlands","51.451811","5.481484"
"FoodDrinkEurope","ROR","04h38r646","https://ror.org/04h38r646","Brussels","Belgium","50.839203","4.386511"
"Forest Peoples Programme","ROR","058c5e806","https://ror.org/058c5e806","Brummen","Netherlands","52.07482","6.134664"
"Forest-based Sector Technology Platform","ROR","04gk6e387","https://ror.org/04gk6e387","Brussels","Belgium","50.839427","4.372204"
"Foundation Centrum '45","ROR","01cwg1p04","https://ror.org/01cwg1p04","Oegstgeest","Netherlands","52.179078","4.460834"
"Foundation KiKa","ROR","05gxzef39","https://ror.org/05gxzef39","Amstelveen","Netherlands","52.30083","4.86389"
"Foundation for Cardiac Surgery","ROR","023pcfd52","https://ror.org/023pcfd52","Brussels","Belgium","50.823824","4.366029"
"Franciscus Vlietland","ROR","05exe6d14","https://ror.org/05exe6d14","Schiedam","Netherlands","51.923148","4.381135"
"French Community Commission","ROR","03gkdzy47","https://ror.org/03gkdzy47","Brussels","Belgium","50.8601074","4.367684"
"French Community of Belgium","ROR","04q01pf08","https://ror.org/04q01pf08","Brussels","Belgium","50.850619","4.355475"
"Friesland College","ROR","02fq0hm69","https://ror.org/02fq0hm69","Leeuwarden","Netherlands","53.20139","5.80859"
"Fund for Scientific Research","ROR","03q83t159","https://ror.org/03q83t159","Brussels","Belgium","50.836942","4.370708"
"Fysio Schambergen","ROR","042xwgm79","https://ror.org/042xwgm79","Kerkrade","Netherlands","50.859178","6.065099"
"G.Ph. Verhagen-Stichting","ROR","04dhf0316","https://ror.org/04dhf0316","Rotterdam","Netherlands","51.9225","4.47917"
"GGD Amsterdam","ROR","04gbbq803","https://ror.org/04gbbq803","Amsterdam","Netherlands","52.3624825315","4.9087616338"
"GGD Brabant-Zuidoost","ROR","00cjb8p81","https://ror.org/00cjb8p81","Eindhoven","Netherlands","51.43925","5.47341"
"GGD Haaglanden","ROR","007b8s847","https://ror.org/007b8s847","The Hague","Netherlands","52.075247","4.301536"
"GGD Hart voor Brabant","ROR","05dzd9d14","https://ror.org/05dzd9d14","'s-Hertogenbosch","Netherlands","51.67969","5.33262"
"GGD Limburg-Noord","ROR","02mn5cm26","https://ror.org/02mn5cm26","Venlo","Netherlands","51.3681843","6.1372017"
"GGD Rotterdam-Rijnmond","ROR","00dkp4z50","https://ror.org/00dkp4z50","Rotterdam","Netherlands","51.913607","4.481577"
"GGD West-Brabant","ROR","02kj9za59","https://ror.org/02kj9za59","Breda","Netherlands","51.601328","4.789667"
"GGD Zeeland","ROR","042s2nd27","https://ror.org/042s2nd27","Goes","Netherlands","51.503779","3.886802"
"GGD Zuid Limburg","ROR","04af0r679","https://ror.org/04af0r679","Geleen","Netherlands","50.975733","5.848471"
"GGNet","ROR","041g5fr04","https://ror.org/041g5fr04","Warnsveld","Netherlands","52.134083","6.251266"
"GGZ Delfland","ROR","04c0z9s56","https://ror.org/04c0z9s56","Delft","Netherlands","52.022253","4.360828"
"GGZ Drenthe","ROR","0107rkg57","https://ror.org/0107rkg57","Assen","Netherlands","52.995866","6.558318"
"GGZ Friesland","ROR","03c0kv729","https://ror.org/03c0kv729","Leeuwarden","Netherlands","53.212232","5.78599"
"GGZ Noord-Holland-Noord","ROR","00b3xjw51","https://ror.org/00b3xjw51","Heiloo","Netherlands","52.596858","4.7081"
"GGZ Oost Brabant","ROR","05p2mb588","https://ror.org/05p2mb588","Boekel","Netherlands","51.589706","5.712007"
"GGZ Rivierduinen","ROR","029cn2a76","https://ror.org/029cn2a76","Leiden","Netherlands","52.166103","4.484836"
"GGZ inGeest","ROR","042m3ve83","https://ror.org/042m3ve83","Amsterdam","Netherlands","52.347664","4.840205"
"GGzE","ROR","03mg65n75","https://ror.org/03mg65n75","Eindhoven","Netherlands","51.4677373","5.4456592"
"GO FAIR Foundation","ROR","056j50v04","https://ror.org/056j50v04","Leiden","Netherlands","52.15833","4.49306"
"GS1 Belgium & Luxembourg","ROR","04xybmk80","https://ror.org/04xybmk80","Brussels","Belgium","50.847319","4.362446"
"GZA Ziekenhuizen Campus Sint-Augustinus","ROR","00kss4e25","https://ror.org/00kss4e25","Antwerp","Belgium","51.17453","4.41807"
"Gelre Hospitals","ROR","05275vm15","https://ror.org/05275vm15","Apeldoorn","Netherlands","52.181115","5.947211"
"Gembloux Agro-Bio Tech","ROR","00bmzhb16","https://ror.org/00bmzhb16","Gembloux","Belgium","50.563379","4.699"
"Gemeente Amsterdam","ROR","003h0ev22","https://ror.org/003h0ev22","Amsterdam","Netherlands","52.366667","4.883333"
"Gemeente Den Haag","ROR","03w387231","https://ror.org/03w387231","The Hague","Netherlands","52.070367","4.303343"
"Gemeente Eindhoven","ROR","04dyx6987","https://ror.org/04dyx6987","Eindhoven","Netherlands","51.44382","5.483297"
"Gemeente Helmond","ROR","028a1kb39","https://ror.org/028a1kb39","Helmond","Netherlands","51.477993","5.651102"
"Gemeente Leiden","ROR","04g1f3s05","https://ror.org/04g1f3s05","Leiden","Netherlands","52.1582769","4.490777"
"Gemeente Rotterdam","ROR","03ma5tr22","https://ror.org/03ma5tr22","Rotterdam","Netherlands","51.928752","4.441485"
"Geneeskundige en Gezondheidsdienst","ROR","006xsx833","https://ror.org/006xsx833","Utrecht","Netherlands","52.089656","5.108258"
"General Practitioners Research Institute","ROR","00qtxjg46","https://ror.org/00qtxjg46","Groningen","Netherlands","53.20103","6.550742"
"German Dutch Wind Tunnels","ROR","05vwbz082","https://ror.org/05vwbz082","Emmeloord","Netherlands","52.721796","5.723633"
"Gerrit Rietveld Academy","ROR","053jpjd80","https://ror.org/053jpjd80","Amsterdam","Netherlands","52.341706","4.860266"
"Ghent University","ROR","00cv9y106","https://ror.org/00cv9y106","Ghent","Belgium","51.05","3.71667"
"Ghent University Hospital","ROR","00xmkp704","https://ror.org/00xmkp704","Ghent","Belgium","51.025171","3.725213"
"Global Flyway Network","ROR","04srm5m98","https://ror.org/04srm5m98","Groningen","Netherlands","53.219334","6.562805"
"Global Network of People Living with HIV/AIDS","ROR","035w8ak98","https://ror.org/035w8ak98","Amsterdam","Netherlands","52.363955","4.877201"
"Go4children","ROR","0492chx91","https://ror.org/0492chx91","Rotterdam","Netherlands","51.943155","4.481259"
"GoodPlanet Belgium","ROR","02x33sm05","https://ror.org/02x33sm05","Brussels","Belgium","50.838125","4.364253"
"Gov2u","ROR","02rggjh51","https://ror.org/02rggjh51","Brussels","Belgium","50.851254","4.395985"
"Government of Netherlands","ROR","045vgz384","https://ror.org/045vgz384","The Hague","Netherlands","52.083333","4.316667"
"Graduate School Neurosciences Amsterdam Rotterdam","ROR","0449h4696","https://ror.org/0449h4696","Amsterdam","Netherlands","52.33295","4.86489"
"Grand Charleroi Hospital","ROR","05ma41w62","https://ror.org/05ma41w62","Charleroi","Belgium","50.41136","4.44448"
"Gratama Stichting","ROR","0151rzq22","https://ror.org/0151rzq22","Breda","Netherlands","51.58656","4.77596"
"Green IT Amsterdam","ROR","04vp8rw50","https://ror.org/04vp8rw50","Amsterdam","Netherlands","52.378246","4.888039"
"Greenovate! Europe","ROR","05f3x9v03","https://ror.org/05f3x9v03","Brussels","Belgium","50.842683","4.374032"
"Groene Hart Ziekenhuis","ROR","0582y1e41","https://ror.org/0582y1e41","Gouda","Netherlands","52.01667","4.70833"
"Groninger Museum","ROR","03zvet229","https://ror.org/03zvet229","Groningen","Netherlands","53.212475","6.565949"
"HAN University of Applied Sciences","ROR","0500gea42","https://ror.org/0500gea42","Arnhem","Netherlands","51.988448","5.949611"
"HAS University of Applied Sciences","ROR","05p706d77","https://ror.org/05p706d77","'s-Hertogenbosch","Netherlands","51.686702","5.285483"
"HOPE European Hospital and Healthcare Federation","ROR","019p95v81","https://ror.org/019p95v81","Brussels","Belgium","50.840547","4.366322"
"HSK Groep","ROR","02hcvyf40","https://ror.org/02hcvyf40","Arnhem","Netherlands","52.0056158","5.8965987"
"HZ University of Applied Sciences","ROR","047cqa323","https://ror.org/047cqa323","Flushing","Netherlands","51.449973","3.589565"
"Haga Hospital","ROR","03q4p1y48","https://ror.org/03q4p1y48","The Hague","Netherlands","52.057307","4.264889"
"Hague Academy of International Law","ROR","03skjap48","https://ror.org/03skjap48","The Hague","Netherlands","52.085898","4.294892"
"Hague Institute for Global Justice","ROR","0363anr51","https://ror.org/0363anr51","The Hague","Netherlands","52.086923","4.306434"
"Hague Institute of Private International and Foreign Law","ROR","05r4c6c72","https://ror.org/05r4c6c72","The Hague","Netherlands","52.085828","4.295146"
"Hanze University of Applied Sciences","ROR","00xqtxw43","https://ror.org/00xqtxw43","Groningen","Netherlands","53.21917","6.56667"
"Hart voor Research Aalst","ROR","00a43s158","https://ror.org/00a43s158","Aalst","Belgium","50.943828","4.054627"
"Hartcentrum Hasselt","ROR","03tw90478","https://ror.org/03tw90478","Hasselt","Belgium","50.91418","5.344793"
"Hartstichting","ROR","05nxhgm70","https://ror.org/05nxhgm70","The Hague","Netherlands","52.056003","4.387934"
"Hartwig Medical Foundation","ROR","0428k0n93","https://ror.org/0428k0n93","Amsterdam","Netherlands","52.35706","4.95818"
"Hasselt University","ROR","04nbhqj75","https://ror.org/04nbhqj75","Hasselt","Belgium","50.93106","5.33781"
"Haute École Albert Jacquard","ROR","00zx7z876","https://ror.org/00zx7z876","Namur","Belgium","50.4669","4.86746"
"Haute École Charlemagne","ROR","03er55z68","https://ror.org/03er55z68","Liège","Belgium","50.623967","5.574839"
"Haute École Francisco Ferrer","ROR","027jqwm11","https://ror.org/027jqwm11","Brussels","Belgium","50.841237","4.342975"
"Haute École Galilée","ROR","028rd3808","https://ror.org/028rd3808","Brussels","Belgium","50.858314","4.367774"
"Haute École Libre Mosane","ROR","052x1x555","https://ror.org/052x1x555","Liège","Belgium","50.644533","5.565794"
"Haute École Libre de Bruxelles Ilya Prigogine","ROR","02k7e9603","https://ror.org/02k7e9603","Brussels","Belgium","50.821189","4.339944"
"Haute École Louvain en Hainaut","ROR","03sfp2d76","https://ror.org/03sfp2d76","Mons","Belgium","50.452256","3.986091"
"Haute École Léonard de Vinci","ROR","04vmtqg68","https://ror.org/04vmtqg68","Brussels","Belgium","50.849981","4.453815"
"Haute École Provinciale de Hainaut Condorcet","ROR","02a22tx41","https://ror.org/02a22tx41","Tournai","Belgium","50.609185","3.403972"
"Haute École Robert Schuman","ROR","03r7nsz84","https://ror.org/03r7nsz84","Saint-Hubert","Belgium","49.927996","5.378856"
"Haute École de Bruxelles","ROR","040nxjw81","https://ror.org/040nxjw81","Brussels","Belgium","50.813847","4.367514"
"Haute École de Namur-Liège-Luxembourg","ROR","051e52h07","https://ror.org/051e52h07","Seraing","Belgium","50.608444","5.512222"
"Haute École de la Province de Liège","ROR","03kmar131","https://ror.org/03kmar131","Liège","Belgium","50.61094","5.510067"
"Haute École de la Province de Namur","ROR","04sv11p30","https://ror.org/04sv11p30","Namur","Belgium","50.465033","4.836714"
"Haute École de la Ville de Liège","ROR","03y37ca41","https://ror.org/03y37ca41","Liège","Belgium","50.639867","5.569927"
"Haute École en Hainaut","ROR","007cpvh39","https://ror.org/007cpvh39","Mons","Belgium","50.462135","3.95746"
"Havenziekenhuis Rotterdam","ROR","0240vc720","https://ror.org/0240vc720","Rotterdam","Netherlands","51.920479","4.498256"
"Health Action International","ROR","0229rjp19","https://ror.org/0229rjp19","Amsterdam","Netherlands","52.363494","4.876285"
"Health Foundation Limburg","ROR","008vm1c77","https://ror.org/008vm1c77","Maastricht","Netherlands","50.84833","5.68889"
"Health Holland","ROR","056cwr036","https://ror.org/056cwr036","The Hague","Netherlands","52.07667","4.29861"
"Health Level Seven International","ROR","029ga8k16","https://ror.org/029ga8k16","Brussels","Belgium","50.840771","4.368738"
"HealthforAnimals","ROR","053ttas14","https://ror.org/053ttas14","Brussels","Belgium","50.837279","4.41043"
"Heliomare","ROR","05mm8r061","https://ror.org/05mm8r061","Wijk aan Zee","Netherlands","52.497611","4.592674"
"Hersenstichting","ROR","04y8met08","https://ror.org/04y8met08","The Hague","Netherlands","52.07667","4.29861"
"Het Nieuwe Instituut","ROR","001g4fr45","https://ror.org/001g4fr45","Rotterdam","Netherlands","51.914651","4.470927"
"Higher Education Institution Lucia de Brouckère","ROR","00cm6et23","https://ror.org/00cm6et23","Brussels","Belgium","50.816565","4.294838"
"HilverZorg","ROR","03g7v9982","https://ror.org/03g7v9982","Hilversum","Netherlands","52.2135726","5.1418439"
"Hogeschool PXL","ROR","03qsbr555","https://ror.org/03qsbr555","Hasselt","Belgium","50.937539","5.347958"
"Hogeschool de Kempel","ROR","056k6yz11","https://ror.org/056k6yz11","Helmond","Netherlands","51.471082","5.709766"
"Hogeschool iPabo","ROR","0230zs006","https://ror.org/0230zs006","Amsterdam","Netherlands","52.367516","4.836804"
"Hotelschool The Hague","ROR","018t8yw14","https://ror.org/018t8yw14","The Hague","Netherlands","52.107894","4.292899"
"House of Representatives","ROR","00f6d9d53","https://ror.org/00f6d9d53","The Hague","Netherlands","52.079614","4.315081"
"Huis voor de Zorg","ROR","02a1s0g57","https://ror.org/02a1s0g57","Sittard","Netherlands","50.9996888","5.8522382"
"Huisartsen Oostelijk Zuid Limburg","ROR","0357qk965","https://ror.org/0357qk965","Heerlen","Netherlands","50.8762613","5.9714709"
"Huizinga Instituut","ROR","03wyamy27","https://ror.org/03wyamy27","Utrecht","Netherlands","52.090088","5.122484"
"Human Vaccines Project Europe","ROR","018ypnc38","https://ror.org/018ypnc38","Castricum","Netherlands","52.559829","4.670161"
"Hôpital Civil de Charleroi","ROR","04t23pb41","https://ror.org/04t23pb41","Charleroi","Belgium","50.430813","4.439045"
"Hôpital de Jolimont","ROR","01jn2rz36","https://ror.org/01jn2rz36","La Louvière","Belgium","50.476851","4.21571"
"Hôpitaux Iris Sud","ROR","03yza5b87","https://ror.org/03yza5b87","Brussels","Belgium","50.835165","4.389142"
"ICCO","ROR","005w1s219","https://ror.org/005w1s219","Utrecht","Netherlands","52.082931","5.085509"
"IHE Delft Institute for Water Education","ROR","030deh410","https://ror.org/030deh410","Delft","Netherlands","52.009069","4.356719"
"IHE Europe","ROR","00wdf2875","https://ror.org/00wdf2875","Brussels","Belgium","50.849363","4.402616"
"IJsselheem","ROR","03ytsc046","https://ror.org/03ytsc046","Kampen","Netherlands","52.551087","5.920889"
"IJsselland Ziekenhuis","ROR","03qh1f279","https://ror.org/03qh1f279","Capelle aan den IJssel","Netherlands","51.92917","4.57778"
"IRC International Water and Sanitation Centre","ROR","02t84dn55","https://ror.org/02t84dn55","The Hague","Netherlands","52.08425","4.32562"
"IZZ Zorgverzekering","ROR","05g6kcv24","https://ror.org/05g6kcv24","Apeldoorn","Netherlands","52.20538","5.955279"
"Ichthus College","ROR","039ryse59","https://ror.org/039ryse59","Veenendaal","Netherlands","52.027306","5.526627"
"Ignatius Hospital","ROR","023r6xh67","https://ror.org/023r6xh67","Breda","Netherlands","51.615795","4.729604"
"Ikazia Ziekenhuis","ROR","01abkkw91","https://ror.org/01abkkw91","Rotterdam","Netherlands","51.9225","4.47917"
"Imec","ROR","02kcbn207","https://ror.org/02kcbn207","Leuven","Belgium","50.867637","4.678237"
"Imelda Hospital","ROR","037s71n47","https://ror.org/037s71n47","Bonheiden","Belgium","51.016652","4.559507"
"In Flanders Fields Museum","ROR","0173en609","https://ror.org/0173en609","Ypres","Belgium","50.851535","2.885691"
"Infor Jeunes Bruxelles","ROR","02n64v793","https://ror.org/02n64v793","Brussels","Belgium","50.84644","4.343097"
"Inholland University of Applied Sciences","ROR","03cfsyg37","https://ror.org/03cfsyg37","Haarlem","Netherlands","52.3892638","4.6128016"
"InnoSportLab","ROR","00qxws716","https://ror.org/00qxws716","Arnhem","Netherlands","52.0056158","5.8965987"
"Innofeet","ROR","01wjwqr61","https://ror.org/01wjwqr61","Zwolle","Netherlands","52.488049","6.127499"
"Institut Belge pour la Sécurité Routière","ROR","02efwpm71","https://ror.org/02efwpm71","Brussels","Belgium","50.88459","4.419192"
"Institut D’Eco-Pédagogie","ROR","01ber0266","https://ror.org/01ber0266","Liège","Belgium","50.6356577","5.5619459"
"Institut Eco-Conseil","ROR","025jpkh15","https://ror.org/025jpkh15","Namur","Belgium","50.4738198","4.8634975"
"Institut Interuniversitaire pour les Relations entre l'Europe l'Amérique Latine et les Caraïbes","ROR","03j503z69","https://ror.org/03j503z69","Brussels","Belgium","50.834942","4.402118"
"Institut Jules Bordet","ROR","05e8s8534","https://ror.org/05e8s8534","Brussels","Belgium","50.833407","4.346602"
"Institut National Supérieur des Arts du Spectacle et des Techniques de Diffusion","ROR","0578r5v59","https://ror.org/0578r5v59","Brussels","Belgium","50.839908","4.361201"
"Institut National de Criminalistique et de Criminologie","ROR","05h8pb290","https://ror.org/05h8pb290","Brussels","Belgium","50.849239","4.351039"
"Institut Scientifique de Service Public","ROR","01gcdtm70","https://ror.org/01gcdtm70","Liège","Belgium","50.612854","5.570908"
"Institut Supérieur de Musique et de Pédagogie","ROR","01hr7tp17","https://ror.org/01hr7tp17","Namur","Belgium","50.464908","4.846278"
"Institut de Conseil et d'Études en Développement Durable","ROR","02yr5fm11","https://ror.org/02yr5fm11","Namur","Belgium","50.464453","4.856544"
"Institut des Arts de Diffusion","ROR","01qhsr268","https://ror.org/01qhsr268","Louvain-la-Neuve","Belgium","50.669006","4.601646"
"Institute for Environmental Security","ROR","00vaeh811","https://ror.org/00vaeh811","The Hague","Netherlands","52.086233","4.298572"
"Institute for European Energy and Climate Policy","ROR","00j210205","https://ror.org/00j210205","The Hague","Netherlands","52.062564","4.245615"
"Institute for European Environmental Policy","ROR","04ja8dc86","https://ror.org/04ja8dc86","Brussels","Belgium","50.85045","4.34878"
"Institute for Programming research and Algorithmics","ROR","04jxbkz90","https://ror.org/04jxbkz90","Eindhoven","Netherlands","51.435645","5.474571"
"Institute for Radioelements","ROR","01wywr782","https://ror.org/01wywr782","Fleurus","Belgium","50.451374","4.531539"
"Institute of Pathology and Genetics","ROR","00zam0e96","https://ror.org/00zam0e96","Charleroi","Belgium","50.473022","4.469391"
"Institute of Tropical Medicine Antwerp","ROR","03xq4x896","https://ror.org/03xq4x896","Antwerp","Belgium","51.22047","4.40026"
"Instituut voor Nederlandse Lexicologie","ROR","04m5bjk54","https://ror.org/04m5bjk54","Leiden","Netherlands","52.158173","4.480773"
"Instituut voor Positieve Psychologie","ROR","01scra789","https://ror.org/01scra789","Amsterdam","Netherlands","52.3557454","4.8546027"
"Instituut voor Verantwoord Medicijngebruik","ROR","012m0jg51","https://ror.org/012m0jg51","Utrecht","Netherlands","52.0841868","5.0824915"
"InterPore","ROR","05s4v9y95","https://ror.org/05s4v9y95","De Bilt","Netherlands","52.11556","5.179667"
"International Association for the Evaluation of Educational Achievement","ROR","00n789a42","https://ror.org/00n789a42","Amsterdam","Netherlands","52.37011","4.88507"
"International Association of Public Transport","ROR","036e7je91","https://ror.org/036e7je91","Brussels","Belgium","50.854541","4.34155"
"International Association of Sedimentologists","ROR","05gv5sv44","https://ror.org/05gv5sv44","Ghent","Belgium","51.046493","3.727962"
"International Bureau for Environmental Studies","ROR","047k18g44","https://ror.org/047k18g44","Brussels","Belgium","50.39198","5.547658"
"International Bureau of Fiscal Documentation","ROR","00bscyw28","https://ror.org/00bscyw28","Amsterdam","Netherlands","52.374315","4.933539"
"International Confederation of Midwives","ROR","039c24767","https://ror.org/039c24767","The Hague","Netherlands","52.084759","4.294965"
"International Council of Marine Industry Associations","ROR","01y434d35","https://ror.org/01y434d35","Brussels","Belgium","50.8572289","4.3175858"
"International Crisis Group","ROR","05gsrqd02","https://ror.org/05gsrqd02","Brussels","Belgium","50.828613","4.362038"
"International Diabetes Federation","ROR","04t34tv83","https://ror.org/04t34tv83","Brussels","Belgium","50.85045","4.34878"
"International Federation of Library Associations and Institutions","ROR","026gatw61","https://ror.org/026gatw61","The Hague","Netherlands","52.07667","4.29861"
"International Institute of Social History","ROR","05dq4pp56","https://ror.org/05dq4pp56","Amsterdam","Netherlands","52.369006","4.93949"
"International Life Sciences Institute Europe","ROR","01t1g3y18","https://ror.org/01t1g3y18","Brussels","Belgium","50.851157","4.455994"
"International Management Institute","ROR","02kwk6c15","https://ror.org/02kwk6c15","Brussels","Belgium","50.881584","4.450427"
"International Nemrud Foundation","ROR","03asbm106","https://ror.org/03asbm106","Geldrop","Netherlands","51.42422","5.53711"
"International Network for Cancer Treatment and Research","ROR","01qp3cj59","https://ror.org/01qp3cj59","Brussels","Belgium","50.7804181","4.3485019"
"International New Town Institute","ROR","027zjnr49","https://ror.org/027zjnr49","Rotterdam","Netherlands","51.924883","4.47456"
"International Pharmaceutical Federation","ROR","0282kvf82","https://ror.org/0282kvf82","The Hague","Netherlands","52.087132","4.28658"
"International Planned Parenthood Federation","ROR","01dez6v88","https://ror.org/01dez6v88","Brussels","Belgium","50.849491","4.36353"
"International Research Universities Network","ROR","04484bb06","https://ror.org/04484bb06","Nijmegen","Netherlands","",""
"International Society for Military Law and the Law of War","ROR","006knrb30","https://ror.org/006knrb30","Brussels","Belgium","50.843416","4.391618"
"International Union of Radio Science","ROR","03esfes81","https://ror.org/03esfes81","Ghent","Belgium","51.05","3.71667"
"International Union of Radioecology","ROR","00yn7fh07","https://ror.org/00yn7fh07","Zemst","Belgium","50.985651","4.454241"
"International Zinc Association","ROR","053e7we70","https://ror.org/053e7we70","Brussels","Belgium","50.85045","4.34878"
"Internet Memory Foundation","ROR","04pys4598","https://ror.org/04pys4598","Amsterdam","Netherlands","52.378154","4.888544"
"Interuniversity Center for Social Science Theory and Methodology","ROR","005rems48","https://ror.org/005rems48","Groningen","Netherlands","53.222293","6.557468"
"Ipse de Bruggen","ROR","01crhqr30","https://ror.org/01crhqr30","Zoetermeer","Netherlands","52.0463691","4.4809361"
"Iridium Kankernetwerk","ROR","04hewny41","https://ror.org/04hewny41","Antwerp","Belgium","51.222473","4.40097"
"Isala","ROR","046a2wj10","https://ror.org/046a2wj10","Zwolle","Netherlands","52.513189","6.124598"
"Iselinge Hogeschool","ROR","047kqmy39","https://ror.org/047kqmy39","Doetinchem","Netherlands","51.967393","6.302627"
"Islamic University of Rotterdam","ROR","02552gk22","https://ror.org/02552gk22","Rotterdam","Netherlands","51.935099","4.46952"
"JKF Kinderfonds","ROR","05crnp253","https://ror.org/05crnp253","Arnhem","Netherlands","51.98","5.91111"
"Jaap Schouten Foundation","ROR","03vzats23","https://ror.org/03vzats23","Rotterdam","Netherlands","51.9225","4.47917"
"Jan Kornelis de Cock Stichting","ROR","00qfb4074","https://ror.org/00qfb4074","Amsterdam","Netherlands","52.37403","4.88969"
"Janivo Stichting","ROR","04e65y578","https://ror.org/04e65y578","Zeist","Netherlands","52.09","5.23333"
"Janusz Korczak Stichting","ROR","007rj1t21","https://ror.org/007rj1t21","Amsterdam","Netherlands","52.3546481","4.898623"
"Jellinek","ROR","02vsng207","https://ror.org/02vsng207","Amsterdam","Netherlands","52.3530458","4.8770269"
"Jeroen Bosch Ziekenhuis","ROR","04rr42t68","https://ror.org/04rr42t68","'s-Hertogenbosch","Netherlands","51.695411","5.184388"
"Jessa Hospital","ROR","00qkhxq50","https://ror.org/00qkhxq50","Hasselt","Belgium","50.925937","5.342062"
"Joep Lange Institute","ROR","01cgvw868","https://ror.org/01cgvw868","Amsterdam","Netherlands","52.29761","4.9541"
"Joint Research Center","ROR","02ef88m96","https://ror.org/02ef88m96","Geel","Belgium","51.16557","4.98917"
"Joint Research Centre","ROR","05wzskb47","https://ror.org/05wzskb47","Petten","Netherlands","52.76667","4.66111"
"Juliana Kinderziekenhuis","ROR","047b5av97","https://ror.org/047b5av97","The Hague","Netherlands","52.055693","4.263793"
"KSYOS TeleMedical Centre","ROR","059gs6g36","https://ror.org/059gs6g36","Amstelveen","Netherlands","52.3178655","4.8727298"
"KU Leuven","ROR","05f950310","https://ror.org/05f950310","Leuven","Belgium","50.87959","4.70093"
"Karakter","ROR","044jw3g30","https://ror.org/044jw3g30","Ede","Netherlands","52.02129","5.690765"
"Karel de Grote University College","ROR","05acs9g96","https://ror.org/05acs9g96","Antwerp","Belgium","51.199228","4.403573"
"Katholieke Hogeschool Vives","ROR","02rnb8t27","https://ror.org/02rnb8t27","Kortrijk","Belgium","50.82803","3.26487"
"Katholieke Pabo Zwolle","ROR","05nrjb178","https://ror.org/05nrjb178","Zwolle","Netherlands","52.506132","6.107448"
"Kempenhaeghe","ROR","03bbe8e53","https://ror.org/03bbe8e53","Heeze","Netherlands","51.363699","5.593789"
"Kenniscentrum Papier en Karton","ROR","009rrq568","https://ror.org/009rrq568","Arnhem","Netherlands","51.988193","5.960611"
"Kijvelanden","ROR","05g52s684","https://ror.org/05g52s684","Rotterdam","Netherlands","51.84633","4.387447"
"Kliniek ViaSana","ROR","02258bk69","https://ror.org/02258bk69","Mill","Netherlands","51.6877064","5.7780566"
"Kliniek voor Parodontologie Rotterdam","ROR","01mgbxm56","https://ror.org/01mgbxm56","Rotterdam","Netherlands","51.9156782","4.4867218"
"Knowledge Centre Wind turbine Materials and Constructions","ROR","050qdy167","https://ror.org/050qdy167","Utrecht","Netherlands","52.854943","5.109719"
"Koning Boudewijnstichting","ROR","02am44w88","https://ror.org/02am44w88","Brussels","Belgium","50.840352","4.362249"
"Koning Willem I College","ROR","01rps2j56","https://ror.org/01rps2j56","'s-Hertogenbosch","Netherlands","51.69917","5.30417"
"Koninklijke Landmacht","ROR","02h83nc26","https://ror.org/02h83nc26","Utrecht","Netherlands","52.07961","5.146277"
"Koninklijke Scholengemeenschap","ROR","027hreq63","https://ror.org/027hreq63","Apeldoorn","Netherlands","52.220448","5.962334"
"Korps Landelijke Politiediensten","ROR","01trfzy92","https://ror.org/01trfzy92","Driebergen-Rijsenburg","Netherlands","52.060571","5.26769"
"LUCA School of Arts","ROR","02gkfsf47","https://ror.org/02gkfsf47","Brussels","Belgium","50.861363","4.367237"
"La Cambre","ROR","00y3r0391","https://ror.org/00y3r0391","Brussels","Belgium","50.817814","4.375091"
"Lange Land Ziekenhuis","ROR","01w48gk31","https://ror.org/01w48gk31","Zoetermeer","Netherlands","52.0690992","4.4993887"
"Laurens","ROR","01d2t6428","https://ror.org/01d2t6428","Rotterdam","Netherlands","51.9168289","4.4711426"
"Laurentius Ziekenhuis","ROR","053njym08","https://ror.org/053njym08","Roermond","Netherlands","51.19417","5.9875"
"Le Beau Vallon - Psychiatric Hospital","ROR","047edpg75","https://ror.org/047edpg75","Namur","Belgium","50.484368","4.825511"
"Leiden University","ROR","027bh9e22","https://ror.org/027bh9e22","Leiden","Netherlands","52.15833","4.49306"
"Leiden University Medical Center","ROR","05xvt9f17","https://ror.org/05xvt9f17","Leiden","Netherlands","52.15833","4.49306"
"Leidsche Rijn Julius Health Centers","ROR","02rx3c188","https://ror.org/02rx3c188","Utrecht","Netherlands","52.105039","5.113843"
"Lentis","ROR","00t93jm73","https://ror.org/00t93jm73","Groningen","Netherlands","53.208284","6.573594"
"Levvel","ROR","029e5ny19","https://ror.org/029e5ny19","Amsterdam","Netherlands","52.37403","4.88969"
"Life Science Patents","ROR","05qtw9471","https://ror.org/05qtw9471","Maastricht","Netherlands","50.831907","5.715219"
"Life Sciences Research Partners","ROR","05neag745","https://ror.org/05neag745","Leuven","Belgium","50.879842","4.671416"
"Long Fonds","ROR","00ddgbf74","https://ror.org/00ddgbf74","Utrecht","Netherlands","52.09083","5.12222"
"Ludwig Cancer Research","ROR","05923xh51","https://ror.org/05923xh51","Brussels","Belgium","50.837975","4.380922"
"Lygature","ROR","02vtk3a57","https://ror.org/02vtk3a57","Utrecht","Netherlands","52.088231","5.107466"
"Lyvore","ROR","036187n68","https://ror.org/036187n68","Soest","Netherlands","52.1753494","5.2940793"
"L’Institut Wallon de l’Évaluation, de la Prospective et de la Statistique","ROR","00q03be40","https://ror.org/00q03be40","Namur","Belgium","50.473451","4.815155"
"Maag Lever Darm Stichting","ROR","05jkpd189","https://ror.org/05jkpd189","Amersfoort","Netherlands","52.155","5.3875"
"Maaslandziekenhuis","ROR","04cm78a24","https://ror.org/04cm78a24","Sittard","Netherlands","50.99833","5.86944"
"Maasstad Ziekenhuis","ROR","01n0rnc91","https://ror.org/01n0rnc91","Rotterdam","Netherlands","51.9225","4.47917"
"Maastricht School of Management","ROR","04zb8fk81","https://ror.org/04zb8fk81","Maastricht","Netherlands","50.837527","5.715952"
"Maastricht University","ROR","02jz4aj89","https://ror.org/02jz4aj89","Maastricht","Netherlands","50.845833","5.687222"
"Maastricht University Medical Centre","ROR","02d9ce178","https://ror.org/02d9ce178","Maastricht","Netherlands","50.84833","5.68889"
"Mama Cash","ROR","00k289v48","https://ror.org/00k289v48","Amsterdam","Netherlands","52.37403","4.88969"
"Marecollege","ROR","03pdfag88","https://ror.org/03pdfag88","Leiden","Netherlands","52.166772","4.511834"
"Mariaziekenhuis","ROR","0422kxg07","https://ror.org/0422kxg07","Overpelt","Belgium","51.212639","5.417083"
"Maritime Research Institute Netherlands","ROR","01fkbmk11","https://ror.org/01fkbmk11","Wageningen","Netherlands","52.032336","5.632812"
"Marnix Academie","ROR","03xws5b35","https://ror.org/03xws5b35","Utrecht","Netherlands","52.103582","5.133155"
"Martini Ziekenhuis","ROR","017b69w10","https://ror.org/017b69w10","Groningen","Netherlands","53.21917","6.56667"
"Materia Nova","ROR","05a2hgt53","https://ror.org/05a2hgt53","Mons","Belgium","50.45413","3.95229"
"Meander Medisch Centrum","ROR","04n1xa154","https://ror.org/04n1xa154","Amersfoort","Netherlands","52.155","5.3875"
"MeanderGroep Zuid-Limburg","ROR","04ctmwv54","https://ror.org/04ctmwv54","Heerlen","Netherlands","50.891003","5.990416"
"Mediant Geestelijke Gezondheidszorg","ROR","057a13j38","https://ror.org/057a13j38","Enschede","Netherlands","52.196204","6.861722"
"Medicines Evaluation Board","ROR","05mv4rb84","https://ror.org/05mv4rb84","Utrecht","Netherlands","52.086744","5.100819"
"Medicort Sports & Orthopedic Care","ROR","01mj4k378","https://ror.org/01mj4k378","Naarden","Netherlands","52.3025","5.153969"
"Medisch Centrum Alkmaar","ROR","04vccmr34","https://ror.org/04vccmr34","Alkmaar","Netherlands","52.627647","4.737995"
"Medisch Centrum Haaglanden","ROR","00v2tx290","https://ror.org/00v2tx290","The Hague","Netherlands","52.07667","4.29861"
"Medisch Centrum Leeuwarden","ROR","0283nw634","https://ror.org/0283nw634","Leeuwarden","Netherlands","53.20139","5.80859"
"Medisch Spectrum Twente","ROR","033xvax87","https://ror.org/033xvax87","Enschede","Netherlands","52.21833","6.89583"
"Meise Botanic Garden","ROR","01h1jbk91","https://ror.org/01h1jbk91","Meise","Belgium","50.928415","4.327212"
"Mentaal Beter","ROR","00g49cs57","https://ror.org/00g49cs57","Hilversum","Netherlands","52.262135","5.147534"
"Merem","ROR","03en95y37","https://ror.org/03en95y37","Hilversum","Netherlands","52.2125406","5.2019263"
"Metakids","ROR","028jnma48","https://ror.org/028jnma48","Amsterdam","Netherlands","52.37403","4.88969"
"Metamorphose VI AISBL","ROR","00s50z725","https://ror.org/00s50z725","Louvain-la-Neuve","Belgium","50.66846","4.611575"
"Middelbaar Beroeps Onderwijs","ROR","004pfc251","https://ror.org/004pfc251","Woerden","Netherlands","52.0870018","4.8827048"
"Militaire Geestelijke Gezondheidszorg","ROR","00xnymf93","https://ror.org/00xnymf93","'s-Hertogenbosch","Netherlands","51.690003","5.289569"
"Ministerie van de Vlaamse Gemeenschap","ROR","00y321w89","https://ror.org/00y321w89","Brussels","Belgium","50.862774","4.352336"
"Ministerium der Deutschsprachigen Gemeinschaft","ROR","05g1fka72","https://ror.org/05g1fka72","Eupen","Belgium","50.6315114","6.0345896"
"Ministry of Agriculture Nature and Food Quality","ROR","00gyf5945","https://ror.org/00gyf5945","Ostend","Belgium","51.221538","2.927973"
"Ministry of Agriculture, Nature and Food Quality","ROR","03b1hdw57","https://ror.org/03b1hdw57","The Hague","Netherlands","52.07667","4.29861"
"Ministry of Defence","ROR","0079deh61","https://ror.org/0079deh61","The Hague","Netherlands","52.07667","4.29861"
"Ministry of Economic Affairs and Climate Policy","ROR","00bc6bw85","https://ror.org/00bc6bw85","The Hague","Netherlands","52.07667","4.29861"
"Ministry of Finance","ROR","054dc7e40","https://ror.org/054dc7e40","The Hague","Netherlands","52.082569","4.316949"
"Ministry of Foreign Affairs","ROR","03rx2ty86","https://ror.org/03rx2ty86","The Hague","Netherlands","52.08306","4.32621"
"Ministry of Health Welfare and Sport","ROR","041evnj42","https://ror.org/041evnj42","The Hague","Netherlands","52.080674","4.321963"
"Ministry of Security and Justice","ROR","04nzhmg91","https://ror.org/04nzhmg91","The Hague","Netherlands","52.079577","4.322056"
"Ministry of Social Affairs and Employment","ROR","05xaz7757","https://ror.org/05xaz7757","The Hague","Netherlands","52.07667","4.29861"
"Ministry of the Brussels-Capital Region","ROR","043zw2312","https://ror.org/043zw2312","Brussels","Belgium","",""
"Ministry of the Interior and Kingdom Relations","ROR","01at1x128","https://ror.org/01at1x128","The Hague","Netherlands","52.07667","4.29861"
"Missing Children Europe","ROR","04gqv6f58","https://ror.org/04gqv6f58","Brussels","Belgium","50.841914","4.369319"
"Mobiel 21","ROR","008ehd394","https://ror.org/008ehd394","Leuven","Belgium","50.87959","4.70093"
"Mondriaan GGZ","ROR","04gk6ks26","https://ror.org/04gk6ks26","Heerlen","Netherlands","50.867128","5.971008"
"Mophradat","ROR","0037jxv73","https://ror.org/0037jxv73","Brussels","Belgium","50.84775","4.338737"
"Movisie","ROR","00vkpdt16","https://ror.org/00vkpdt16","Utrecht","Netherlands","52.090367","5.113387"
"Museon-Omniversum","ROR","03scjwb12","https://ror.org/03scjwb12","The Hague","Netherlands","52.07667","4.29861"
"Museum Boerhaave","ROR","058nd7377","https://ror.org/058nd7377","Leiden","Netherlands","52.161482","4.488843"
"Museum Catharijneconvent","ROR","01xjjmp17","https://ror.org/01xjjmp17","Utrecht","Netherlands","52.087248","5.12411"
"Museum Dr Guislain","ROR","04k3sfn15","https://ror.org/04k3sfn15","Ghent","Belgium","51.067517","3.704216"
"Máxima Medisch Centrum","ROR","02x6rcb77","https://ror.org/02x6rcb77","Veldhoven","Netherlands","51.41833","5.40278"
"Médecins Sans Frontières","ROR","03rfn9b75","https://ror.org/03rfn9b75","Brussels","Belgium","50.833496","4.36407"
"Médecins du Monde","ROR","031h57r44","https://ror.org/031h57r44","Brussels","Belgium","50.855252","4.365149"
"NATO Science and Technology Organization","ROR","02qzsgg04","https://ror.org/02qzsgg04","Brussels","Belgium","50.85045","4.34878"
"NHL Stenden University of Applied Sciences","ROR","02xgxme97","https://ror.org/02xgxme97","Leeuwarden","Netherlands","53.20139","5.80859"
"NHTV Breda University of Applied Sciences","ROR","04mfj5474","https://ror.org/04mfj5474","Breda","Netherlands","51.590309","4.795519"
"NIM Maatschappelijk Werk","ROR","043e6bd18","https://ror.org/043e6bd18","Nijmegen","Netherlands","51.815354","5.879328"
"NTI University","ROR","025gshh98","https://ror.org/025gshh98","Leiden","Netherlands","52.166641","4.485321"
"Nanotechnology Industries Association","ROR","055vs2h16","https://ror.org/055vs2h16","Brussels","Belgium","50.837631","4.405582"
"Nationaal Archief of the Netherlands","ROR","0546dmt59","https://ror.org/0546dmt59","The Hague","Netherlands","52.081475","4.326382"
"Nationaal MS Fonds","ROR","03za4at61","https://ror.org/03za4at61","Rotterdam","Netherlands","51.913496","4.451738"
"National Aerospace Laboratory","ROR","022sw4578","https://ror.org/022sw4578","Amsterdam","Netherlands","52.345265","4.844009"
"National Bank of Belgium","ROR","054jfj847","https://ror.org/054jfj847","Brussels","Belgium","50.848885","4.359732"
"National Foundation for the Elderly","ROR","04fb0r664","https://ror.org/04fb0r664","Bunnik","Netherlands","52.156397","5.381633"
"National Library of the Netherlands","ROR","02w4jbg70","https://ror.org/02w4jbg70","The Hague","Netherlands","52.08155","4.327285"
"National MS Center Melsbroek","ROR","03dgx1q54","https://ror.org/03dgx1q54","Steenokkerzeel","Belgium","50.91851","4.50989"
"National Museum of Antiquities","ROR","01079a392","https://ror.org/01079a392","Leiden","Netherlands","52.158483","4.486122"
"National Museum of Ethnology","ROR","01xt0a511","https://ror.org/01xt0a511","Leiden","Netherlands","52.163388","4.482864"
"Nationale Instelling voor Radioactief Aval en verijkte Splijtstoffen","ROR","044ng3n84","https://ror.org/044ng3n84","Brussels","Belgium","50.85045","4.34878"
"Nationale Intensive Care Evaluatie Stichting","ROR","022p9j404","https://ror.org/022p9j404","Utrecht","Netherlands","52.116218","5.125502"
"Natural History Museum Maastricht","ROR","0488nj033","https://ror.org/0488nj033","Gemeente Maastricht","Netherlands","50.85","5.7"
"Natural History Museum Rotterdam","ROR","01s8f2180","https://ror.org/01s8f2180","Rotterdam","Netherlands","51.9108","4.4725"
"Naturalis Biodiversity Center","ROR","0566bfb96","https://ror.org/0566bfb96","Leiden","Netherlands","52.15833","4.49306"
"Natuurmuseum Brabant","ROR","04py0zz23","https://ror.org/04py0zz23","Tilburg","Netherlands","51.55984","5.081268"
"Nederlandse Brandwonden Stichting","ROR","01fz2rj87","https://ror.org/01fz2rj87","Beverwijk","Netherlands","52.481449","4.654164"
"Nederlandse Cystic Fibrosis Stichting","ROR","00r7myp66","https://ror.org/00r7myp66","Baarn","Netherlands","52.21167","5.2875"
"Nederlandse Internisten Vereniging","ROR","03sk8zw22","https://ror.org/03sk8zw22","Utrecht","Netherlands","52.065682","5.085456"
"Nederlandse Obesitas Kliniek","ROR","04e53cd15","https://ror.org/04e53cd15","Zeist","Netherlands","52.078478","5.233758"
"Nederlandse Ski Vereniging","ROR","015nq5b13","https://ror.org/015nq5b13","Utrecht","Netherlands","52.065835","5.083127"
"Nederlandse Vereniging van Artsen voor Musculoskeletale Geneeskunde","ROR","04gv1ap07","https://ror.org/04gv1ap07","Utrecht","Netherlands","52.15598","5.207274"
"Nederlandse Vereniging voor Acupunctuur","ROR","02v1bhf02","https://ror.org/02v1bhf02","Amersfoort","Netherlands","52.156015","5.382398"
"Nederlandse Vereniging voor Anesthesiologie","ROR","02ykn5012","https://ror.org/02ykn5012","Utrecht","Netherlands","52.09083","5.12222"
"Nederlandse Vereniging voor Heelkunde","ROR","04dm9th67","https://ror.org/04dm9th67","Utrecht","Netherlands","52.066533","5.085445"
"Nederlandse Vereniging voor Plastische Chirurgie","ROR","02fxhk514","https://ror.org/02fxhk514","Utrecht","Netherlands","52.0726","5.076818"
"Nederlandse Vereniging voor Radiologie","ROR","0480n9h26","https://ror.org/0480n9h26","Vught","Netherlands","51.666932","5.294533"
"Nefrovisie","ROR","03y974j42","https://ror.org/03y974j42","Utrecht","Netherlands","52.09083","5.12222"
"Netherlands Bioinformatics Centre","ROR","01r0k6965","https://ror.org/01r0k6965","Nijmegen","Netherlands","51.823909","5.864552"
"Netherlands Cancer Institute-Antoni van Leeuwenhoek Hospital","ROR","03xqtf034","https://ror.org/03xqtf034","Amsterdam","Netherlands","52.37403","4.88969"
"Netherlands Comprehensive Cancer Organisation","ROR","03g5hcd33","https://ror.org/03g5hcd33","Eindhoven","Netherlands","51.442969","5.469018"
"Netherlands Consortium for Healthy Ageing","ROR","03wnqyy64","https://ror.org/03wnqyy64","Leiden","Netherlands","52.167746","4.477463"
"Netherlands Controlling Authority for Milk and Milk Products","ROR","05sej3528","https://ror.org/05sej3528","Leusden","Netherlands","52.138627","5.421213"
"Netherlands Enterprise Agency","ROR","00mvd2t81","https://ror.org/00mvd2t81","The Hague","Netherlands","52.082315","4.334342"
"Netherlands Federation of University Medical Centres","ROR","02dm2pb39","https://ror.org/02dm2pb39","Utrecht","Netherlands","52.09083","5.12222"
"Netherlands Food and Consumer Product Safety Authority","ROR","03v2e2v10","https://ror.org/03v2e2v10","Utrecht","Netherlands","52.089862","5.123688"
"Netherlands Graduate Research School of Science, Technology and Modern Culture","ROR","025fr4535","https://ror.org/025fr4535","Enschede","Netherlands","52.239842","6.849864"
"Netherlands Graduate School of Linguistics","ROR","05dbptw67","https://ror.org/05dbptw67","Utrecht","Netherlands","52.093859","5.122807"
"Netherlands Haemophilia Society","ROR","00wk22n41","https://ror.org/00wk22n41","Nijkerk","Netherlands","52.22","5.48611"
"Netherlands Institute for Art History","ROR","049p9kt19","https://ror.org/049p9kt19","The Hague","Netherlands","52.08289","4.333372"
"Netherlands Institute for Catalysis Research","ROR","0567f1w19","https://ror.org/0567f1w19","The Hague","Netherlands","52.080653","4.344332"
"Netherlands Institute for Multiparty Democracy","ROR","04syg0e16","https://ror.org/04syg0e16","The Hague","Netherlands","52.078036","4.311089"
"Netherlands Institute for Social Research","ROR","04tagjk85","https://ror.org/04tagjk85","The Hague","Netherlands","52.0805","4.321694"
"Netherlands Institute for Sound and Vision","ROR","025ae8628","https://ror.org/025ae8628","Hilversum","Netherlands","52.235491","5.173002"
"Netherlands Leprosy Relief","ROR","03fzdex20","https://ror.org/03fzdex20","Amsterdam","Netherlands","52.349598","4.917736"
"Netherlands Organisation for Applied Scientific Research","ROR","01bnjb948","https://ror.org/01bnjb948","Delft","Netherlands","52.00667","4.35556"
"Netherlands Organisation for Health Research and Development","ROR","01yaj9a77","https://ror.org/01yaj9a77","The Hague","Netherlands","52.080486","4.344438"
"Netherlands Research School for Literary Studies","ROR","04mx1wt49","https://ror.org/04mx1wt49","Amsterdam","Netherlands","52.37403","4.88969"
"Netherlands School of Public Administration","ROR","033958n71","https://ror.org/033958n71","The Hague","Netherlands","52.082095","4.312074"
"Netherlands Space Office","ROR","01vb6q136","https://ror.org/01vb6q136","The Hague","Netherlands","52.081872","4.333238"
"Netherlands Standardization Institute","ROR","03x84qk23","https://ror.org/03x84qk23","Delft","Netherlands","51.988604","4.362499"
"Netherlands eScience Center","ROR","00rbjv475","https://ror.org/00rbjv475","Amsterdam","Netherlands","52.37403","4.88969"
"Network for Studies on Pensions, Aging and Retirement","ROR","05tw3m124","https://ror.org/05tw3m124","Tilburg","Netherlands","51.55551","5.0913"
"Network of European Foundations","ROR","05aznfd39","https://ror.org/05aznfd39","Brussels","Belgium","50.848824","4.362651"
"Network of the Universities from the Capitals of Europe","ROR","04q2cc503","https://ror.org/04q2cc503","Brussels","Belgium","50.839033","4.365524"
"NewOpera","ROR","02mp6w091","https://ror.org/02mp6w091","Brussels","Belgium","50.836885","4.371229"
"Neys-van Hoogstraten Foundation","ROR","05cfhyk75","https://ror.org/05cfhyk75","The Hague","Netherlands","52.086157","4.308595"
"Nierstichting","ROR","020k6v967","https://ror.org/020k6v967","Bussum","Netherlands","52.274726","5.144139"
"Nieuwegein Fonds","ROR","017cm0005","https://ror.org/017cm0005","Nieuwegein","Netherlands","52.02751","5.068477"
"Noordwest Ziekenhuisgroep","ROR","00bc64s87","https://ror.org/00bc64s87","Alkmaar","Netherlands","52.628885","4.737077"
"North Atlantic Treaty Organization","ROR","05xagc088","https://ror.org/05xagc088","Brussels","Belgium","50.876156","4.422011"
"Novay","ROR","00266dp40","https://ror.org/00266dp40","Enschede","Netherlands","52.237408","6.84257"
"Nuffic","ROR","04y716y05","https://ror.org/04y716y05","The Hague","Netherlands","52.07667","4.29861"
"Nutricia Research Foundation","ROR","00vt3ry76","https://ror.org/00vt3ry76","Noordwijk-Binnen","Netherlands","52.230468","4.44759"
"Nyenrode Business University","ROR","018528593","https://ror.org/018528593","Breukelen","Netherlands","52.16166","5.00483"
"OCON Orthopedische kliniek","ROR","05h6np937","https://ror.org/05h6np937","Hengelo","Netherlands","52.26583","6.79306"
"ORSI Academy","ROR","05p3a9320","https://ror.org/05p3a9320","Melle","Belgium","50.9804649","3.8203308"
"Observatories and Research Facilities for European Seismology","ROR","01v801w64","https://ror.org/01v801w64","De Bilt","Netherlands","52.101657","5.17792"
"Omring","ROR","0180s3q15","https://ror.org/0180s3q15","Hoorn","Netherlands","52.65573","5.064442"
"Oncode Institute","ROR","01n92vv28","https://ror.org/01n92vv28","Utrecht","Netherlands","52.09083","5.12222"
"Ontwikkelingsmaatschappij Oost Nederland","ROR","05vq5je50","https://ror.org/05vq5je50","Enschede","Netherlands","52.178146","5.968317"
"Onze Lieve Vrouwe Gasthuis","ROR","01d02sf11","https://ror.org/01d02sf11","Amsterdam","Netherlands","52.359281","4.916762"
"Onze Lieve Vrouwziekenhuis Hospital","ROR","00zrfhe30","https://ror.org/00zrfhe30","Aalst","Belgium","50.943885","4.055221"
"Oostvaarderskliniek","ROR","01kmd8x15","https://ror.org/01kmd8x15","Almere Stad","Netherlands","52.404176","5.326942"
"Open University in the Netherlands","ROR","018dfmf50","https://ror.org/018dfmf50","Heerlen","Netherlands","50.87905","5.95931"
"Openbare Scholengemeenschap De Hogeberg","ROR","008za0b72","https://ror.org/008za0b72","Den Burg","Netherlands","53.050836","4.799973"
"Oranje Fonds","ROR","00xvwyc81","https://ror.org/00xvwyc81","Utrecht","Netherlands","52.102814","5.043469"
"Organisation for the Prohibition of Chemical Weapons","ROR","02rqftv84","https://ror.org/02rqftv84","The Hague","Netherlands","52.091241","4.283193"
"Organisation of European Cancer Institutes","ROR","03dpet089","https://ror.org/03dpet089","Brussels","Belgium","50.83902","4.365605"
"Orpheus Institute","ROR","02c191v59","https://ror.org/02c191v59","Ghent","Belgium","51.05164","3.722779"
"Orthopedie Groot Eindhoven","ROR","03x67yw88","https://ror.org/03x67yw88","Eindhoven","Netherlands","51.454594","5.487711"
"Oxfam Solidarité","ROR","0530vbv92","https://ror.org/0530vbv92","Brussels","Belgium","50.854178","4.332908"
"Papageno Foundation","ROR","05dyc0249","https://ror.org/05dyc0249","Laren","Netherlands","52.263756","5.214733"
"Parnassia Groep","ROR","002wh3v03","https://ror.org/002wh3v03","The Hague","Netherlands","52.045096","4.209131"
"Partnership for Advanced Computing in Europe","ROR","038j4hz26","https://ror.org/038j4hz26","Brussels","Belgium","50.837143","4.37052"
"Pension Fund for Care and Well-Being","ROR","05a8epj20","https://ror.org/05a8epj20","Zeist","Netherlands","52.09099","5.229771"
"PharmAccess Group","ROR","007jy0643","https://ror.org/007jy0643","Amsterdam","Netherlands","52.37403","4.88969"
"PharmaTrain Federation","ROR","0161df093","https://ror.org/0161df093","Brussels","Belgium","50.840866","4.368895"
"Podocentrum Alkmaar","ROR","03exh6913","https://ror.org/03exh6913","Alkmaar","Netherlands","52.631151","4.72094"
"Politieacademie","ROR","01htwz965","https://ror.org/01htwz965","Apeldoorn","Netherlands","52.188387","5.958938"
"Port of Antwerp","ROR","020rcsj15","https://ror.org/020rcsj15","Antwerp","Belgium","51.2414355684","4.4072423116"
"Port of Moerdijk","ROR","00nhmr817","https://ror.org/00nhmr817","Moerdijk","Netherlands","51.6747632229","4.6062316423"
"Port of Rotterdam Authority","ROR","05rzqb565","https://ror.org/05rzqb565","Rotterdam","Netherlands","51.904919","4.484504"
"Postmaster Psychologie Opleidingen","ROR","03naar428","https://ror.org/03naar428","Groningen","Netherlands","53.217266","6.574643"
"Princess Máxima Center","ROR","02aj7yc53","https://ror.org/02aj7yc53","Utrecht","Netherlands","52.09083","5.12222"
"Prins Bernhard Cultuurfonds","ROR","05j159997","https://ror.org/05j159997","Amsterdam","Netherlands","52.365088","4.891595"
"Prinses Beatrix Spierfonds","ROR","0011f2t53","https://ror.org/0011f2t53","The Hague","Netherlands","52.07667","4.29861"
"Promens Care","ROR","01hnq0310","https://ror.org/01hnq0310","Assen","Netherlands","52.991861","6.528443"
"Promotie Binnenvaart Vlaanderen","ROR","0106dk572","https://ror.org/0106dk572","Hasselt","Belgium","50.938567","5.353757"
"Prospex Institute","ROR","01am91k72","https://ror.org/01am91k72","Brussels","Belgium","50.841031","4.383818"
"Proteion","ROR","035thvx71","https://ror.org/035thvx71","Haelen","Netherlands","51.221387","5.920265"
"Protestant Theological University","ROR","016w23120","https://ror.org/016w23120","Kampen","Netherlands","52.557753","5.912881"
"Province of Antwerp","ROR","022v8s261","https://ror.org/022v8s261","Antwerp","Belgium","51.216667","4.416667"
"PsyQ","ROR","02axh0j46","https://ror.org/02axh0j46","The Hague","Netherlands","52.076879","4.298222"
"Psychotherapy & Movement","ROR","02nr63q87","https://ror.org/02nr63q87","Amsterdam","Netherlands","52.360791","4.905158"
"Public Health Service of Amsterdam","ROR","042jn4x95","https://ror.org/042jn4x95","Amsterdam","Netherlands","52.362475","4.908765"
"Public Waste Agency of Flanders","ROR","01zq0ty45","https://ror.org/01zq0ty45","Mechelen","Belgium","51.020486","4.485999"
"Queen Astrid Military Hospital","ROR","0243t3259","https://ror.org/0243t3259","Brussels","Belgium","50.90731","4.39229"
"Queen Elisabeth Medical Foundation","ROR","030x5z418","https://ror.org/030x5z418","Brussels","Belgium","50.85045","4.34878"
"Queen Fabiola Children's University Hospital","ROR","01t5yh786","https://ror.org/01t5yh786","Brussels","Belgium","50.888594","4.328903"
"Radboud University Nijmegen","ROR","016xsfp80","https://ror.org/016xsfp80","Nijmegen","Netherlands","51.8425","5.85278"
"Radboud University Nijmegen Medical Centre","ROR","05wg1m734","https://ror.org/05wg1m734","Nijmegen","Netherlands","51.8425","5.85278"
"Radiocommunications Agency","ROR","00jmt8d06","https://ror.org/00jmt8d06","Groningen","Netherlands","53.212494","6.56062"
"Radiotherapeutisch Instituut Friesland","ROR","05f7htr55","https://ror.org/05f7htr55","Leeuwarden","Netherlands","53.190544","5.801479"
"Radiotherapie Groep","ROR","048338z54","https://ror.org/048338z54","Arnhem","Netherlands","52.002512","5.90807"
"Reading & Writing Foundation","ROR","05qssq044","https://ror.org/05qssq044","The Hague","Netherlands","52.07667","4.29861"
"Refaja Ziekenhuis","ROR","04pw0tr28","https://ror.org/04pw0tr28","Stadskanaal","Netherlands","53.00147","6.93571"
"Reformed University of Applied Sciences","ROR","02ar29j81","https://ror.org/02ar29j81","Zwolle","Netherlands","52.50725","6.103558"
"Regio Gooi en Vechtstreek","ROR","01are8h73","https://ror.org/01are8h73","Bussum","Netherlands","52.27046","5.161717"
"Regionale scholengemeenschap Goeree-Overflakkee","ROR","02z0ywx65","https://ror.org/02z0ywx65","Middelharnis","Netherlands","51.756007","4.161234"
"Reinier de Graaf Hospital","ROR","00wkhef66","https://ror.org/00wkhef66","Delft","Netherlands","51.997748","4.340292"
"Reinier van Arkel","ROR","04ggjpc96","https://ror.org/04ggjpc96","'s-Hertogenbosch","Netherlands","51.687464","5.313037"
"Reinwardt Academie","ROR","01jcjpa26","https://ror.org/01jcjpa26","Gemeente Amsterdam","Netherlands","52.37302","4.89856"
"Research Foundation - Flanders","ROR","03qtxy027","https://ror.org/03qtxy027","Brussels","Belgium","50.839191","4.36528"
"Research Institute of Organic Agriculture","ROR","03jmahf97","https://ror.org/03jmahf97","Brussels","Belgium","50.849132","4.366835"
"Research School for Medieval Studies","ROR","03bkq6a07","https://ror.org/03bkq6a07","Groningen","Netherlands","53.220024","6.564349"
"Research in Advanced Medical Informatics and Telematics","ROR","024acas24","https://ror.org/024acas24","Ghent","Belgium","51.024889","3.72507"
"Reumafonds","ROR","05dr3r825","https://ror.org/05dr3r825","Amsterdam","Netherlands","52.371112","4.844872"
"Revalidatiefonds","ROR","02vmzh064","https://ror.org/02vmzh064","Odijk","Netherlands","52.055187","5.226026"
"Revalidatieziekenhuis RevArte","ROR","00m3xsv93","https://ror.org/00m3xsv93","Edegem","Belgium","51.154212","4.408886"
"Rijksmuseum","ROR","006wjwp03","https://ror.org/006wjwp03","Amsterdam","Netherlands","52.36","4.885278"
"Rijndam Revalidatiecentrum","ROR","04tsjk726","https://ror.org/04tsjk726","Rotterdam","Netherlands","51.952836","4.483221"
"Rijnland Ziekenhuis","ROR","05vc4qy60","https://ror.org/05vc4qy60","Leiderdorp","Netherlands","52.15691","4.542063"
"Rijnstate Hospital","ROR","0561z8p38","https://ror.org/0561z8p38","Arnhem","Netherlands","52.001316","5.910109"
"Robuust","ROR","01nsg2f90","https://ror.org/01nsg2f90","Eindhoven","Netherlands","51.441443","5.475209"
"Rode Kruis Ziekenhuis","ROR","00vyr7c31","https://ror.org/00vyr7c31","Beverwijk","Netherlands","52.48333","4.65694"
"Rode Kruis-Vlaanderen","ROR","00zqa9n78","https://ror.org/00zqa9n78","Mechelen","Belgium","51.01473","4.490672"
"Roessingh Research and Development","ROR","01dmjt679","https://ror.org/01dmjt679","Enschede","Netherlands","52.231923","6.878625"
"Roparun Foundation","ROR","05j0e3q89","https://ror.org/05j0e3q89","Schiedam","Netherlands","51.905653","4.375188"
"Rotterdam Eye Hospital","ROR","02hjc7j46","https://ror.org/02hjc7j46","Rotterdam","Netherlands","51.914919","4.480212"
"Rotterdam Stroke Service","ROR","0232dj695","https://ror.org/0232dj695","Rotterdam","Netherlands","51.91465","4.4654"
"Rotterdam University of Applied Sciences","ROR","0481e1q24","https://ror.org/0481e1q24","Rotterdam","Netherlands","51.910159","4.46254"
"Royal Academy of Art","ROR","00490vc18","https://ror.org/00490vc18","The Hague","Netherlands","52.081854","4.319379"
"Royal Belgian Institute of Natural Sciences","ROR","02y22ws83","https://ror.org/02y22ws83","Brussels","Belgium","50.85045","4.34878"
"Royal Belgian Society for Surgery","ROR","04yy1mz94","https://ror.org/04yy1mz94","Brussels","Belgium","50.849752","4.346205"
"Royal Conservatory of Brussels","ROR","033wswd35","https://ror.org/033wswd35","Brussels","Belgium","50.839086","4.355741"
"Royal Conservatory of The Hague","ROR","01mwwwn80","https://ror.org/01mwwwn80","The Hague","Netherlands","52.081173","4.331606"
"Royal Dutch Athletics Federation","ROR","01qyj3s68","https://ror.org/01qyj3s68","Arnhem","Netherlands","52.011603","5.820781"
"Royal Dutch Kentalis","ROR","0175ya539","https://ror.org/0175ya539","Sint-Michielsgestel","Netherlands","51.646046","5.34274"
"Royal Military Academy","ROR","02vmnye06","https://ror.org/02vmnye06","Brussels","Belgium","50.844722","4.3925"
"Royal Museum for Central Africa","ROR","001805t51","https://ror.org/001805t51","Tervuren","Belgium","50.830899","4.518325"
"Royal Museum of Fine Arts Antwerp","ROR","03mgecs35","https://ror.org/03mgecs35","Antwerp","Belgium","51.22047","4.40026"
"Royal Museum of Mariemont","ROR","02g451n39","https://ror.org/02g451n39","Morlanwelz-Mariemont","Belgium","50.467804","4.232598"
"Royal Museums of Art and History","ROR","031kxs331","https://ror.org/031kxs331","Brussels","Belgium","50.842741","4.359005"
"Royal Museums of Fine Arts of Belgium","ROR","03z601r05","https://ror.org/03z601r05","Brussels","Belgium","50.842669","4.357689"
"Royal Netherlands Academy of Arts and Sciences","ROR","043c0p156","https://ror.org/043c0p156","Amsterdam","Netherlands","52.37403","4.88969"
"Royal Netherlands Meteorological Institute","ROR","05dfgh554","https://ror.org/05dfgh554","De Bilt","Netherlands","52.11","5.18056"
"Royal Tropical Institute","ROR","01z6bgg93","https://ror.org/01z6bgg93","Amsterdam","Netherlands","52.362487","4.920274"
"SBOH","ROR","0270bqq96","https://ror.org/0270bqq96","Utrecht","Netherlands","52.09083","5.12222"
"SEO Amsterdam Economics","ROR","021088259","https://ror.org/021088259","Amsterdam","Netherlands","52.37403","4.88969"
"SNS Reaal","ROR","04tf4mr55","https://ror.org/04tf4mr55","Utrecht","Netherlands","52.088887","5.104446"
"SNV Netherlands Development Organisation","ROR","01a4v4q66","https://ror.org/01a4v4q66","The Hague","Netherlands","52.08361","4.308145"
"STM Association","ROR","04d5w6769","https://ror.org/04d5w6769","The Hague","Netherlands","52.08169","4.327014"
"Saint John's Hospital","ROR","01r2n9849","https://ror.org/01r2n9849","Bruges","Belgium","51.20384","3.224187"
"Sanquin","ROR","01fm2fv39","https://ror.org/01fm2fv39","Amsterdam","Netherlands","52.37403","4.88969"
"Save by Seva Foundation","ROR","05x6vad86","https://ror.org/05x6vad86","Amsterdam","Netherlands","52.369928","4.89446"
"Saxion University of Applied Sciences","ROR","005t9n460","https://ror.org/005t9n460","Enschede","Netherlands","52.2203","6.8864"
"Scalda","ROR","01dcz6f16","https://ror.org/01dcz6f16","Terneuzen","Netherlands","51.3105162057","3.856851298"
"Scientific Council for Government Policy","ROR","054zz9x25","https://ror.org/054zz9x25","The Hague","Netherlands","52.070156","4.305746"
"Scladina","ROR","003jt2t26","https://ror.org/003jt2t26","Andenne","Belgium","50.48554","5.02642"
"Senate","ROR","041agrq44","https://ror.org/041agrq44","The Hague","Netherlands","52.079644","4.311992"
"Service Public Federal Finances","ROR","0144xq035","https://ror.org/0144xq035","Brussels","Belgium","50.861331","4.358287"
"Service Public Fédéral Intérieur","ROR","01wvpfr56","https://ror.org/01wvpfr56","Brussels","Belgium","50.847423","4.363565"
"Service Public Fédéral Technologie de l'Information et de la Communication","ROR","014mewn70","https://ror.org/014mewn70","Brussels","Belgium","50.860559","4.356513"
"Service Public Fédéral Économie","ROR","044xw2q20","https://ror.org/044xw2q20","Brussels","Belgium","50.860554","4.356789"
"Service Public de Wallonie","ROR","0215gxf82","https://ror.org/0215gxf82","Namur","Belgium","50.4669","4.86746"
"Service Volontaire International","ROR","01a0hfp29","https://ror.org/01a0hfp29","Brussels","Belgium","50.822674","4.386792"
"Sint Franciscus Gasthuis","ROR","007xmz366","https://ror.org/007xmz366","Rotterdam","Netherlands","51.9225","4.47917"
"Sint Lucas Andreas Hospital","ROR","016jc2h42","https://ror.org/016jc2h42","Amsterdam","Netherlands","52.371457","4.839178"
"Sint Maartenskliniek","ROR","0454gfp30","https://ror.org/0454gfp30","Nijmegen","Netherlands","51.833781","5.899515"
"Sirris","ROR","01qr26m26","https://ror.org/01qr26m26","Brussels","Belgium","50.85107","4.401868"
"Slingeland Ziekenhuis","ROR","00jw56w10","https://ror.org/00jw56w10","Doetinchem","Netherlands","51.976036","6.284353"
"Slotervaartziekenhuis","ROR","01w502745","https://ror.org/01w502745","Amsterdam","Netherlands","52.347576","4.824555"
"Sluyterman van Loo Foundation","ROR","0393e5v03","https://ror.org/0393e5v03","Beverwijk","Netherlands","52.479699","4.652759"
"Sophia Revalidatie","ROR","03m7jfm83","https://ror.org/03m7jfm83","The Hague","Netherlands","52.041288","4.266987"
"Spaarne Gasthuis","ROR","05d7whc82","https://ror.org/05d7whc82","Haarlem","Netherlands","52.38084","4.63683"
"Spaarne Ziekenhuis","ROR","0120mb525","https://ror.org/0120mb525","Hoofddorp","Netherlands","52.324407","4.653712"
"Spieren voor Spieren","ROR","01d22zt92","https://ror.org/01d22zt92","Amsterdam","Netherlands","52.37403","4.88969"
"Sport Medisch Centrum Papendal","ROR","02wmkpz59","https://ror.org/02wmkpz59","Arnhem","Netherlands","52.011246","5.820825"
"St Clara Hospital","ROR","05qfq7p37","https://ror.org/05qfq7p37","Rotterdam","Netherlands","51.880013","4.5352"
"St John Berchmans University College","ROR","04x57eq39","https://ror.org/04x57eq39","Leuven","Belgium","50.858602","4.686417"
"St. Anna Ziekenhuis","ROR","04y89nz36","https://ror.org/04y89nz36","Geldrop","Netherlands","51.42167","5.55972"
"St. Antonius Ziekenhuis","ROR","01jvpb595","https://ror.org/01jvpb595","Nieuwegein","Netherlands","52.025895","5.081526"
"St.Jans Gasthuis Weert","ROR","01a91k946","https://ror.org/01a91k946","Weert","Netherlands","51.254157","5.712362"
"Star Medisch Diagnostisch Centrum","ROR","04jfsvb44","https://ror.org/04jfsvb44","Rotterdam","Netherlands","51.9279722","4.4904063"
"Startup Foundation","ROR","05s31v772","https://ror.org/05s31v772","Rotterdam","Netherlands","51.9225","4.47917"
"Startups.be","ROR","042bvs696","https://ror.org/042bvs696","Brussels","Belgium","50.84536","4.35728"
"State Archives of Belgium","ROR","04y1ast97","https://ror.org/04y1ast97","Brussels","Belgium","50.842493","4.356416"
"Statistics Belgium","ROR","0246a9012","https://ror.org/0246a9012","Brussels","Belgium","50.858566","4.355746"
"Stedelijk Museum Amsterdam","ROR","006a5r035","https://ror.org/006a5r035","Amsterdam","Netherlands","52.358129","4.87967"
"Stichting Achmea Slachtoffer en Samenleving","ROR","033hwwn95","https://ror.org/033hwwn95","Zeist","Netherlands","52.105411","5.260992"
"Stichting Artrose Zorg","ROR","00dfdhy47","https://ror.org/00dfdhy47","The Hague","Netherlands","52.086961","4.333363"
"Stichting Astma Bestrijding","ROR","02cwr7s69","https://ror.org/02cwr7s69","Amsterdam","Netherlands","52.270688","5.14553"
"Stichting Bergh in het Zadel","ROR","009v0hs75","https://ror.org/009v0hs75","'s-Heerenberg","Netherlands","51.874128","6.244592"
"Stichting Bio Kinderrevalidatie","ROR","03b60ep93","https://ror.org/03b60ep93","Arnhem","Netherlands","52.015385","5.830841"
"Stichting Coolsingel","ROR","0294che38","https://ror.org/0294che38","Rotterdam","Netherlands","51.9225","4.47917"
"Stichting De Weijerhorst","ROR","0227c4549","https://ror.org/0227c4549","Maastricht","Netherlands","50.84833","5.68889"
"Stichting Ecobaby","ROR","0334n7472","https://ror.org/0334n7472","Loenen","Netherlands","52.23512","4.993657"
"Stichting Erasmus Trustfonds","ROR","033zc3t08","https://ror.org/033zc3t08","Rotterdam","Netherlands","51.9191128","4.4940878"
"Stichting Euregio Maas-Rijn","ROR","0549g6963","https://ror.org/0549g6963","Eupen","Belgium","50.632284","6.03602"
"Stichting Gereformeerd of Burgerweeshuis te Haarlem","ROR","03czygt47","https://ror.org/03czygt47","Haarlem","Netherlands","52.385238","4.635323"
"Stichting Gezondheidscentra Eindhoven","ROR","02cwrcd13","https://ror.org/02cwrcd13","Eindhoven","Netherlands","51.472681","5.495219"
"Stichting Handbike Events","ROR","01e2kx306","https://ror.org/01e2kx306","Utrecht","Netherlands","52.090073","5.113045"
"Stichting Hartcentrum Twente","ROR","03bzzj274","https://ror.org/03bzzj274","Enschede","Netherlands","52.2206","6.888305"
"Stichting Hartekind","ROR","00s3sar63","https://ror.org/00s3sar63","Maarssen","Netherlands","52.452104","4.808902"
"Stichting Hofje Codde en Van Beresteyn","ROR","003dey933","https://ror.org/003dey933","Heemstede","Netherlands","52.358057","4.619358"
"Stichting Kenniscentrum Dementie op Jonge Leeftijd","ROR","010xsbj02","https://ror.org/010xsbj02","Amersfoort","Netherlands","52.15304","5.372157"
"Stichting Kinderen en Kansen","ROR","03cev2h16","https://ror.org/03cev2h16","Oldenzaal","Netherlands","52.312007","6.927788"
"Stichting LOOP","ROR","0479zah75","https://ror.org/0479zah75","Meppel","Netherlands","52.69639","6.207425"
"Stichting MS Research","ROR","00qeet526","https://ror.org/00qeet526","Voorschoten","Netherlands","52.1275","4.44861"
"Stichting Mitialto","ROR","00srb9238","https://ror.org/00srb9238","Breda","Netherlands","51.571797","4.759526"
"Stichting Nationaal Fonds Het Gehandicapte Kind","ROR","04q3h7t52","https://ror.org/04q3h7t52","The Hague","Netherlands","52.101275","4.270706"
"Stichting Oogfonds Nederland","ROR","00x6ysg61","https://ror.org/00x6ysg61","Utrecht","Netherlands","52.09083","5.12222"
"Stichting Physico","ROR","00g715g80","https://ror.org/00g715g80","Rotterdam","Netherlands","51.925772","4.485591"
"Stichting Rehabilitatie ‘92","ROR","0356ywp11","https://ror.org/0356ywp11","Utrecht","Netherlands","52.095113","5.136441"
"Stichting RevaZorg","ROR","00feb6h18","https://ror.org/00feb6h18","Arnhem","Netherlands","52.018634","5.825866"
"Stichting Stoffels-Hornstra","ROR","05qg0fx21","https://ror.org/05qg0fx21","Coevorden","Netherlands","52.66103","6.74046"
"Stichting Toegepast Wetenschappelijk Instituut voor Neuromodulatie","ROR","05my1gr06","https://ror.org/05my1gr06","Hengelo","Netherlands","52.281673","6.799168"
"Stichting Urologisch Wetenschappelijk Onderzoek","ROR","00q6rn894","https://ror.org/00q6rn894","Rotterdam","Netherlands","51.9279722","4.4904063"
"Stichting Vooruit","ROR","04jxcha86","https://ror.org/04jxcha86","Hoensbroek","Netherlands","50.9209696","5.9104482"
"Stichting Vrienden Beatrix Kinderziekenhuis","ROR","00vh82m49","https://ror.org/00vh82m49","Groningen","Netherlands","53.222093","6.575634"
"Stichting Warande","ROR","01braxd57","https://ror.org/01braxd57","Zeist","Netherlands","52.0863702","5.2575814"
"Stichting Zorgondersteuningsfonds","ROR","01k2ap794","https://ror.org/01k2ap794","Soest","Netherlands","52.166543","5.291655"
"Stichting de Verre Bergen","ROR","02a0z8v73","https://ror.org/02a0z8v73","Rotterdam","Netherlands","51.907515","4.47591"
"Stichting tegen Kanker","ROR","01h3dr788","https://ror.org/01h3dr788","Brussels","Belgium","50.85465","4.39615"
"Stichting voor Christelijke Filosofie","ROR","045h1za13","https://ror.org/045h1za13","Amersfoort","Netherlands","52.153673","5.38345"
"Stoas University of Applied Sciences","ROR","04x99xv31","https://ror.org/04x99xv31","Ede","Netherlands","51.9861194","5.6722"
"Strategic Initiative Materials in Flanders","ROR","03bwk9n44","https://ror.org/03bwk9n44","Ghent","Belgium","51.010069","3.706995"
"Streeklab Haarlem","ROR","02fyrxr51","https://ror.org/02fyrxr51","Haarlem","Netherlands","52.366787","4.650145"
"Streekziekenhuis Koningin Beatrix","ROR","02vn5as77","https://ror.org/02vn5as77","Winterswijk","Netherlands","51.978548","6.701918"
"Superior School of Circus Arts","ROR","03khyar38","https://ror.org/03khyar38","Brussels","Belgium","50.816242","4.422728"
"TIAS School for Business and Society","ROR","03q7ay915","https://ror.org/03q7ay915","Tilburg","Netherlands","51.564313","5.045062"
"Tactus Verslavingszorg","ROR","00v0vvh64","https://ror.org/00v0vvh64","Deventer","Netherlands","52.236386","6.191964"
"Tandartspraktijk Bocht Oosterdiep","ROR","02kqzrt08","https://ror.org/02kqzrt08","Veendam","Netherlands","53.102549","6.877147"
"Tante Louise","ROR","00ccsy875","https://ror.org/00ccsy875","Bergen op Zoom","Netherlands","51.4909283","4.3001403"
"Team Westland","ROR","03t8qvt86","https://ror.org/03t8qvt86","Hoek van Holland","Netherlands","51.9814961","4.1393207"
"Technopolis","ROR","02mrv4556","https://ror.org/02mrv4556","Mechelen","Belgium","51.002011","4.469955"
"Tekke Huizinga Fonds","ROR","04jhza748","https://ror.org/04jhza748","Groningen","Netherlands","53.21917","6.56667"
"Tergooi","ROR","045nawc23","https://ror.org/045nawc23","Blaricum","Netherlands","52.2675","5.2075"
"Terra","ROR","01dn09e98","https://ror.org/01dn09e98","Groningen","Netherlands","53.203188","6.574793"
"Teylers Museum","ROR","01f0ym620","https://ror.org/01f0ym620","Haarlem","Netherlands","52.381146","4.640185"
"The European Academy of Gynaecological Surgery","ROR","00cfkaw62","https://ror.org/00cfkaw62","Leuven","Belgium","50.8824","4.713503"
"The German Marshall Fund of the United States","ROR","038jw0f49","https://ror.org/038jw0f49","Brussels","Belgium","50.843203","4.379834"
"The Global Alliance for LGBT Education","ROR","01f0eaw14","https://ror.org/01f0eaw14","Amsterdam","Netherlands","52.382946","4.886043"
"The Hague University of Applied Sciences","ROR","021zvq422","https://ror.org/021zvq422","The Hague","Netherlands","52.07667","4.29861"
"The Health Council of the Netherlands","ROR","007xad319","https://ror.org/007xad319","The Hague","Netherlands","52.080502","4.321931"
"The MuseumFactory","ROR","03srysw20","https://ror.org/03srysw20","Enschede","Netherlands","52.21833","6.89583"
"The Ocean Cleanup","ROR","000jqa749","https://ror.org/000jqa749","Delft","Netherlands","51.920833","4.468333"
"Theological University","ROR","02x435584","https://ror.org/02x435584","Kampen","Netherlands","52.557703","5.913024"
"Theological University of Apeldoorn","ROR","03s2fjy85","https://ror.org/03s2fjy85","Apeldoorn","Netherlands","52.221246","5.964072"
"Thomas More Kempen","ROR","04e7kpf57","https://ror.org/04e7kpf57","Geel","Belgium","51.160081","4.964156"
"TiFN","ROR","0183vre95","https://ror.org/0183vre95","Wageningen","Netherlands","51.974319","5.646696"
"Tilburg University","ROR","04b8v1s79","https://ror.org/04b8v1s79","Tilburg","Netherlands","51.563805","5.042573"
"Tinbergen Institute","ROR","054xxtt73","https://ror.org/054xxtt73","Rotterdam","Netherlands","51.9225","4.47917"
"Tio University","ROR","00560h931","https://ror.org/00560h931","Hengelo","Netherlands","52.0961537","5.1110252"
"Tolbrug Specialistische Revalidatie","ROR","031a73r17","https://ror.org/031a73r17","'s-Hertogenbosch","Netherlands","51.684246","5.277941"
"Transcare","ROR","01fw4cw44","https://ror.org/01fw4cw44","Groningen","Netherlands","53.198535","6.561835"
"Transnational University Limburg","ROR","02xyaf767","https://ror.org/02xyaf767","Diepenbeek","Belgium","50.910742","5.410819"
"Treant Zorggroep","ROR","01tm5k604","https://ror.org/01tm5k604","Emmen","Netherlands","52.7862341","6.9130549"
"TropIQ Health Sciences","ROR","050xscb48","https://ror.org/050xscb48","Nijmegen","Netherlands","51.822205","5.819537"
"Tropenbos International","ROR","00yvwb080","https://ror.org/00yvwb080","Ede","Netherlands","52.02092","5.67966"
"Tropenmuseum","ROR","00r7zrn27","https://ror.org/00r7zrn27","Amsterdam","Netherlands","52.362803","4.922256"
"TuBerculosis Vaccine Initiative","ROR","01hb96w20","https://ror.org/01hb96w20","Lelystad","Netherlands","52.523076","5.557428"
"U-center","ROR","03791x537","https://ror.org/03791x537","Gulpen","Netherlands","50.772781","5.898234"
"Udens College","ROR","04ryr8437","https://ror.org/04ryr8437","Uden","Netherlands","51.662683","5.628352"
"Universitair Ziekenhuis Brussel","ROR","038f7y939","https://ror.org/038f7y939","Brussels","Belgium","50.887265","4.307746"
"Universitair Ziekenhuis Leuven","ROR","0424bsv16","https://ror.org/0424bsv16","Leuven","Belgium","50.87959","4.70093"
"University Centre Saint-Ignatius Antwerp","ROR","017zkwz61","https://ror.org/017zkwz61","Antwerp","Belgium","51.222278","4.409331"
"University College Ghent","ROR","00rs45z86","https://ror.org/00rs45z86","Ghent","Belgium","51.05","3.71667"
"University College Odisee","ROR","02c89h825","https://ror.org/02c89h825","Brussels","Belgium","50.849002","4.356424"
"University College West Flanders","ROR","00fy5v859","https://ror.org/00fy5v859","Kortrijk","Belgium","50.821901","3.25032"
"University Colleges Leuven-Limburg","ROR","03zq0dg86","https://ror.org/03zq0dg86","Leuven","Belgium","50.87959","4.70093"
"University Foundation","ROR","001t02e86","https://ror.org/001t02e86","Brussels","Belgium","50.85045","4.34878"
"University Medical Center Groningen","ROR","03cv38k47","https://ror.org/03cv38k47","Groningen","Netherlands","53.222794","6.574039"
"University Medical Center Utrecht","ROR","0575yy874","https://ror.org/0575yy874","Utrecht","Netherlands","52.09083","5.12222"
"University Museum Utrecht","ROR","058kzes98","https://ror.org/058kzes98","Utrecht","Netherlands","52.09083","5.12222"
"University for Peace","ROR","002fzqp75","https://ror.org/002fzqp75","The Hague","Netherlands","52.085964","4.295353"
"University of Amsterdam","ROR","04dkp9463","https://ror.org/04dkp9463","Amsterdam","Netherlands","52.37403","4.88969"
"University of Antwerp","ROR","008x57b05","https://ror.org/008x57b05","Antwerp","Belgium","51.222729","4.40843"
"University of Applied Sciences Leiden","ROR","0093src13","https://ror.org/0093src13","Leiden","Netherlands","52.167557","4.4712"
"University of Applied Sciences Utrecht","ROR","028z9kw20","https://ror.org/028z9kw20","Utrecht","Netherlands","52.09083","5.12222"
"University of Groningen","ROR","012p63287","https://ror.org/012p63287","Groningen","Netherlands","53.219443","6.562966"
"University of Humanistic Studies","ROR","04w5ec154","https://ror.org/04w5ec154","Utrecht","Netherlands","52.091697","5.125636"
"University of Liège","ROR","00afp2z80","https://ror.org/00afp2z80","Liège","Belgium","50.63373","5.56749"
"University of Mons","ROR","02qnnz951","https://ror.org/02qnnz951","Mons","Belgium","50.451854","3.953206"
"University of Namur","ROR","03d1maw17","https://ror.org/03d1maw17","Namur","Belgium","50.467789","4.860024"
"University of Twente","ROR","006hf6230","https://ror.org/006hf6230","Enschede","Netherlands","52.242736","6.853264"
"University of the Arts Utrecht","ROR","018bzp792","https://ror.org/018bzp792","Utrecht","Netherlands","52.22011","5.19079"
"Université Catholique de Louvain","ROR","02495e989","https://ror.org/02495e989","Louvain-la-Neuve","Belgium","50.669611","4.612264"
"Université Libre de Bruxelles","ROR","01r9htc13","https://ror.org/01r9htc13","Brussels","Belgium","50.85045","4.34878"
"Université Saint-Louis","ROR","02ygek028","https://ror.org/02ygek028","Brussels","Belgium","50.85045","4.34878"
"Université du Travail Paul Pastur","ROR","0114pns79","https://ror.org/0114pns79","Charleroi","Belgium","50.417813","4.447587"
"Utrecht University","ROR","04pp8hn57","https://ror.org/04pp8hn57","Utrecht","Netherlands","52.09083","5.12222"
"VIB - International Plant Biotechnology Outreach","ROR","05bm1gr16","https://ror.org/05bm1gr16","Ghent","Belgium","51.01331","3.70944"
"VSBfonds","ROR","022jr5m13","https://ror.org/022jr5m13","Utrecht","Netherlands","52.090496","5.131607"
"Van Hall Larenstein University of Applied Sciences","ROR","02mdbnd10","https://ror.org/02mdbnd10","Leeuwarden","Netherlands","53.194459","5.80194"
"Van Lodenstein College","ROR","02dnd4c36","https://ror.org/02dnd4c36","Amersfoort","Netherlands","52.155","5.3875"
"Vanderes Foundation","ROR","016p3p817","https://ror.org/016p3p817","Amsterdam","Netherlands","52.336404","4.88488"
"VeiligheidNL","ROR","05qwpv987","https://ror.org/05qwpv987","Amsterdam","Netherlands","52.343885","4.839908"
"Veiligheids- en Gezondheidsregio Gelderland-Midden","ROR","02mm95a26","https://ror.org/02mm95a26","Arnhem","Netherlands","51.977934","5.917256"
"Verslavingszorg Noord Nederland","ROR","0564c7p76","https://ror.org/0564c7p76","Groningen","Netherlands","53.2015611","6.5816427"
"Via Vinci Academy","ROR","026rmnx29","https://ror.org/026rmnx29","Breda","Netherlands","51.640307","4.737415"
"VieCuri Medisch Centrum","ROR","02kjpb485","https://ror.org/02kjpb485","Venlo","Netherlands","51.37","6.16806"
"Vilentum University of applied sciences","ROR","01xpgs822","https://ror.org/01xpgs822","Dronten","Netherlands","52.52888","5.698522"
"Vincent Van Gogh Voor Geestelijke Gezondheidszorg","ROR","02h6h5y05","https://ror.org/02h6h5y05","Venray","Netherlands","51.527935","5.987241"
"Virenze","ROR","00r83s510","https://ror.org/00r83s510","Maastricht","Netherlands","50.851286","5.703929"
"Virtual Institute of Nano Films","ROR","02r4hr462","https://ror.org/02r4hr462","Brussels","Belgium","50.850619","4.349982"
"Virtual Reality Medical Institute","ROR","03r8rqb98","https://ror.org/03r8rqb98","Brussels","Belgium","50.848373","4.449181"
"Visio","ROR","043nwx769","https://ror.org/043nwx769","Huizen","Netherlands","52.2920664","5.2394655"
"VitaValley Foundation","ROR","00m3dfd98","https://ror.org/00m3dfd98","Ede","Netherlands","52.064706","5.654593"
"Vitalis WoonZorg Group","ROR","04t2ed417","https://ror.org/04t2ed417","Eindhoven","Netherlands","51.4174668","5.48236"
"Vlaams Patiëntenplatform","ROR","01nrhd027","https://ror.org/01nrhd027","Herent","Belgium","50.875209","4.683503"
"Vlaamse Interuniversitaire Raad","ROR","00q3h2974","https://ror.org/00q3h2974","Brussels","Belgium","50.85045","4.34878"
"Vlaamse Liga tegen Kanker","ROR","05fsa3j22","https://ror.org/05fsa3j22","Brussels","Belgium","50.85045","4.34878"
"Vlakwa","ROR","05txhgq68","https://ror.org/05txhgq68","Kortrijk","Belgium","50.824757","3.251522"
"Vlerick Business School","ROR","056t38c37","https://ror.org/056t38c37","Ghent","Belgium","51.051949","3.729172"
"Volandis","ROR","02qpd5a14","https://ror.org/02qpd5a14","Harderwijk","Netherlands","52.333668","5.645424"
"Von Karman Institute for Fluid Dynamics","ROR","01r4bn552","https://ror.org/01r4bn552","Sint-Genesius-Rode","Belgium","50.755722","4.386278"
"Vredeseilanden","ROR","047n17w18","https://ror.org/047n17w18","Leuven","Belgium","50.876212","4.709746"
"Vrienden WKZ","ROR","024gr4122","https://ror.org/024gr4122","Utrecht","Netherlands","52.086058","5.179598"
"Vrienden van Heideheuvel","ROR","00xs43h36","https://ror.org/00xs43h36","Amsterdam","Netherlands","52.3742549","4.8329256"
"Vrienden van het Sophia","ROR","03tdgzq48","https://ror.org/03tdgzq48","Rotterdam","Netherlands","51.9111204","4.4669234"
"Vrije Universiteit Amsterdam","ROR","008xxew50","https://ror.org/008xxew50","Amsterdam","Netherlands","52.37403","4.88969"
"Vrije Universiteit Brussel","ROR","006e5kg04","https://ror.org/006e5kg04","Brussels","Belgium","50.823202","4.392588"
"Wageningen University & Research","ROR","04qw24q55","https://ror.org/04qw24q55","Wageningen","Netherlands","51.984754","5.665749"
"Wallonie-Bruxelles International","ROR","008vsyy18","https://ror.org/008vsyy18","Brussels","Belgium","50.85045","4.34878"
"Walloon Excellence in Lifesciences and Biotechnology","ROR","04qbvw321","https://ror.org/04qbvw321","Wavre","Belgium","50.71717","4.60138"
"Walloon Government","ROR","00jv65847","https://ror.org/00jv65847","Namur","Belgium","50.4669","4.86746"
"Wantveld","ROR","013e4mp15","https://ror.org/013e4mp15","Noordwijk-Binnen","Netherlands","52.250226","4.436106"
"War Child","ROR","01tq9ra93","https://ror.org/01tq9ra93","Amsterdam","Netherlands","52.349986","4.939608"
"Water Supply and Sanitation Technology Platform","ROR","00jyykt64","https://ror.org/00jyykt64","Brussels","Belgium","50.812916","4.419972"
"Waterlandziekenhuis","ROR","02pfr9428","https://ror.org/02pfr9428","Purmerend","Netherlands","52.500668","4.962647"
"Werkgroep Cardiologische centra Nederland","ROR","01bb2y691","https://ror.org/01bb2y691","Utrecht","Netherlands","52.088587","5.1137"
"Westfriesgasthuis","ROR","0405b3553","https://ror.org/0405b3553","Hoorn","Netherlands","52.647193","5.054055"
"Wetlands International","ROR","04td9e852","https://ror.org/04td9e852","Wageningen","Netherlands","52.021468","5.676471"
"Wiener - Anspach Foundation","ROR","013ww9721","https://ror.org/013ww9721","Brussels","Belgium","50.813173","4.382179"
"Wikimedia Belgium","ROR","026ghdj11","https://ror.org/026ghdj11","Brussels","Belgium","50.838574","4.367869"
"Wikimedia Nederland","ROR","046crbt05","https://ror.org/046crbt05","Utrecht","Netherlands","52.089882","5.118265"
"Wilhelmina Children's Hospital","ROR","05fqypv61","https://ror.org/05fqypv61","Utrecht","Netherlands","52.09083","5.12222"
"Willem-Alexander Kinderziekenhuis","ROR","02xmm1048","https://ror.org/02xmm1048","Leiden","Netherlands","52.166347","4.478434"
"WindEurope","ROR","00qkeey15","https://ror.org/00qkeey15","Brussels","Belgium","50.84193","4.373638"
"Windesheim Flevoland","ROR","036k3ee35","https://ror.org/036k3ee35","Almere Stad","Netherlands","52.370426","5.223146"
"Windesheim University of Applied Sciences","ROR","04zmc0e16","https://ror.org/04zmc0e16","Zwolle","Netherlands","52.500052","6.079401"
"Wittenborg University","ROR","020z55s31","https://ror.org/020z55s31","Apeldoorn","Netherlands","52.210163","5.971772"
"World Cancer Research Fund Netherlands","ROR","017fdbp82","https://ror.org/017fdbp82","Amsterdam","Netherlands","52.37403","4.88969"
"World Marrow Donor Association","ROR","02zcn6j48","https://ror.org/02zcn6j48","Leiden","Netherlands","52.168344","4.486844"
"Yulius","ROR","03jftj094","https://ror.org/03jftj094","Dordrecht","Netherlands","51.811217","4.661736"
"ZNA Middelheim Hospital","ROR","01z5jvj74","https://ror.org/01z5jvj74","Antwerp","Belgium","51.181177","4.421464"
"Zaans Medisch Centrum","ROR","0331x8t04","https://ror.org/0331x8t04","Zaandam","Netherlands","52.453342","4.826504"
"Zeeuws Hand & Pols Centrum","ROR","01j0j2s89","https://ror.org/01j0j2s89","Goes","Netherlands","51.5007246","3.8891766"
"Ziekenhuis Amstelland","ROR","05e73v668","https://ror.org/05e73v668","Amstelveen","Netherlands","52.30083","4.86389"
"Ziekenhuis Bernhoven","ROR","05b5x0e19","https://ror.org/05b5x0e19","Uden","Netherlands","51.66083","5.61944"
"Ziekenhuis Bethesda","ROR","02hvsf428","https://ror.org/02hvsf428","Hoogeveen","Netherlands","52.726898","6.461025"
"Ziekenhuis Gelderse Vallei","ROR","03862t386","https://ror.org/03862t386","Ede","Netherlands","52.03333","5.65833"
"Ziekenhuis Groep Twente","ROR","04grrp271","https://ror.org/04grrp271","Almelo","Netherlands","52.338126","6.640328"
"Ziekenhuis Nij Smellinghe","ROR","030gj2p37","https://ror.org/030gj2p37","Drachten","Netherlands","53.11254","6.0989"
"Ziekenhuis Oost-Limburg","ROR","04fg7az81","https://ror.org/04fg7az81","Genk","Belgium","50.965","5.50082"
"Ziekenhuis Rivierenland","ROR","03xwgfg33","https://ror.org/03xwgfg33","Tiel","Netherlands","51.88667","5.42917"
"Ziekenhuisnetwerk Antwerpen Stuivenberg","ROR","05dpzfc16","https://ror.org/05dpzfc16","Antwerp","Belgium","51.222185","4.43525"
"Zorg in Ontwikkeling","ROR","03vn3r884","https://ror.org/03vn3r884","Maastricht","Netherlands","50.849879","5.702456"
"Zorg voor innoveren","ROR","00d7qnf81","https://ror.org/00d7qnf81","The Hague","Netherlands","52.071211","4.308836"
"Zorggroep Kans","ROR","04gpeah71","https://ror.org/04gpeah71","Arnhem","Netherlands","51.981965","5.906937"
"Zorggroep Meander","ROR","00vtp3850","https://ror.org/00vtp3850","Kerkrade","Netherlands","50.864966","6.065251"
"Zorggroep Sint Maarten","ROR","0320z2q35","https://ror.org/0320z2q35","Oldenzaal","Netherlands","52.393859","7.005801"
"Zorginstituut Nederland","ROR","038b4c997","https://ror.org/038b4c997","Diemen","Netherlands","52.329965","4.959839"
"Zuyd University of Applied Sciences","ROR","02m6k0m40","https://ror.org/02m6k0m40","Heerlen","Netherlands","50.88365","5.98154"
"Zuyderland Medisch Centrum","ROR","03bfc4534","https://ror.org/03bfc4534","Sittard","Netherlands","50.982792","5.84497"
"de Posten","ROR","04phw6a61","https://ror.org/04phw6a61","Enschede","Netherlands","52.187658","6.881278"
"e-Forum","ROR","035hs0289","https://ror.org/035hs0289","Brussels","Belgium","50.803488","4.424804"
"euroCRIS","ROR","04340dw19","https://ror.org/04340dw19","Nijmegen","Netherlands","51.813772","5.836931"
"École Pratique des Hautes Études Commerciales","ROR","05fj0ng27","https://ror.org/05fj0ng27","Brussels","Belgium","50.849881","4.448475"
"École Supérieure des Arts Saint-Luc de Liège","ROR","02zwsc421","https://ror.org/02zwsc421","Liège","Belgium","50.644097","5.584926"
"École Supérieure des Arts de l'Image Le 75","ROR","05ez1q344","https://ror.org/05ez1q344","Brussels","Belgium","50.844604","4.440178"
"École de Recherche Graphique","ROR","03ba15j53","https://ror.org/03ba15j53","Brussels","Belgium","50.822135","4.357064"
